index,countryCode,countryName,cityCode,urbanAgglomeration,latitude,longitude,radius,yearMotorway,yearHST
567,344, China Hong Kong SAR,21137,Hong Kong,22.279588,114.188697,,,
1,4,Afghanistan,20001,Herat,34.34817,62.19967,,,
2,4,Afghanistan,20002,Kabul,34.528887,69.17246,,,
3,4,Afghanistan,20003,Kandahar,31.61332,65.71013,,,
4,8,Albania,20005,Tiranë (Tirana),41.3275,19.81889,,,
5,12,Algeria,20009,Annaba,36.9,7.76667,,,
6,12,Algeria,20011,Batna,35.55597,6.17414,,,
7,12,Algeria,20015,Blida,36.480781,2.831943,,,
8,12,Algeria,20006,El Djazaïr  (Algiers),36.7525,3.04197,,,
9,12,Algeria,20020,El Djelfa,34.67279,3.263,,,
10,12,Algeria,20019,Qacentina,36.354921,6.607293,,,
11,12,Algeria,20035,Wahran (Oran),35.69111,-0.64167,,,
12,24,Angola,20050,Huambo,-12.77611,15.73917,,,
13,24,Angola,20049,Luanda,-8.83682,13.23432,,,
14,24,Angola,204044,Lubango,-14.91717,13.4925,,,
15,32,Argentina,20057,Bahia Blanca,-38.7196,-62.27243,,,
16,32,Argentina,20058,Buenos Aires,-34.605083,-58.400368,,,
17,32,Argentina,20059,Córdoba,-31.4135,-64.18105,,,
18,32,Argentina,20063,Corrientes,-27.4806,-58.8341,,,
19,32,Argentina,20065,La Plata,-34.92145,-57.95453,,,
20,32,Argentina,20067,Mar Del Plata,-38.00228,-57.55754,,,
21,32,Argentina,20068,Mendoza,-32.89084,-68.82717,,,
22,32,Argentina,20070,Neuquén-Plottier-Cipolletti,-38.95143,-68.064809,,,
23,32,Argentina,20072,Posadas,-27.36708,-55.89608,,,
24,32,Argentina,20073,Resistencia,-27.46056,-58.98389,,,
25,32,Argentina,20075,Rosario,-32.94682,-60.63932,,,
26,32,Argentina,20076,Salta,-24.7859,-65.41166,,,
27,32,Argentina,20078,San Juan,-31.5375,-68.53639,,,
28,32,Argentina,20081,San Miguel de Tucumán,-26.82414,-65.2226,,,
29,32,Argentina,20084,San Salvador de Jujuy,-24.19456,-65.29712,,,
30,32,Argentina,20085,Santa Fe,-31.632717,-60.698281,,,
31,32,Argentina,20086,Santiago Del Estero,-27.79511,-64.26149,,,
32,51,Armenia,20140,Yerevan,40.181998,44.514619,,,
33,36,Australia,206171,Adelaide,-34.92866,138.59863,,,
34,36,Australia,206170,Brisbane,-27.46794,153.02809,,,
35,36,Australia,206175,Canberra,-35.28346,149.12807,,,
36,36,Australia,20093,Gold Coast,-28.00029,153.43088,,,
37,36,Australia,206168,Melbourne,-37.814,144.96332,,,
38,36,Australia,206177,Newcastle and Lake Macquarie,-32.924878,151.740852,,,
39,36,Australia,206172,Perth,-31.947841,115.852514,,,
40,36,Australia,20098,Sunshine Coast,-26.66008,153.09953,,,
41,36,Australia,206167,Sydney,-33.86785,151.20732,,,
42,40,Austria,20107,Wien (Vienna),48.206443,16.370725,,,
43,31,Azerbaijan,20053,Baku,40.37767,49.89201,,,
44,31,Azerbaijan,20054,Gäncä,40.68278,46.36056,,,
45,31,Azerbaijan,20056,Sumquayit,40.58972,49.66861,,,
46,48,Bahrain,20109,Al-Manamah (Manama),26.21536,50.5832,,,
47,50,Bangladesh,20110,Barisal,22.70194,90.37111,,,
48,50,Bangladesh,20112,Bogra,24.85,89.36667,,,
49,50,Bangladesh,20115,Chittagong,22.33306,91.83639,,,
50,50,Bangladesh,20117,Comilla,23.45778,91.20444,,,
51,50,Bangladesh,20119,Dhaka,23.7104,90.40744,,,
52,50,Bangladesh,20124,Khulna,22.80978,89.56439,,,
53,50,Bangladesh,20126,Mymensingh,24.75,90.4,,,
54,50,Bangladesh,20131,Rajshahi,24.36667,88.6,,,
55,50,Bangladesh,20132,Rangpur,25.75,89.25,,,
56,50,Bangladesh,20136,Sylhet,24.89667,91.87167,,,
57,112,Belarus,20344,Brest,52.09755,23.68775,,,
58,112,Belarus,20345,Gomel,52.4345,30.9754,,,
59,112,Belarus,20346,Grodno,53.6884,23.8258,,,
60,112,Belarus,20348,Minsk,53.9,27.56667,,,
61,112,Belarus,20349,Mogilev,53.9141,30.33764,,,
62,112,Belarus,20355,Vitebsk,55.19048,30.2033,,,
64,56,Belgium,20144,Bruxelles-Brussel,50.846735,4.349919,,,1997
63,56,Belgium,20142,Antwerpen,51.21989,4.40346,,,
65,56,Belgium,20145,Charleroi,50.41136,4.44448,,,
66,56,Belgium,20146,Gent,51.05,3.71667,,,
67,56,Belgium,20148,Liège,50.63373,5.56749,,,
68,204,Benin,204024,Abomey-Calavi,6.44852,2.35566,,,
69,204,Benin,20888,Cotonou,6.36536,2.41833,,,
70,68,Bolivia (Plurinational State of),20152,Cochabamba,-17.3895,-66.1568,,,
71,68,Bolivia (Plurinational State of),20153,La Paz,-16.5,-68.15,,,
72,68,Bolivia (Plurinational State of),20157,Santa Cruz,-17.79891,-63.169825,,,
73,68,Bolivia (Plurinational State of),20158,Sucre,-19.03332,-65.26274,,,
74,70,Bosnia and Herzegovina,20164,Sarajevo,43.84864,18.35644,,,
75,76,Brazil,20172,Anápolis,-16.32667,-48.95278,,,
76,76,Brazil,20174,Aracaju,-10.91111,-37.07167,,,
77,76,Brazil,20281,Baixada Santista,-23.957,-46.326609,,,
78,76,Brazil,20181,Bauru,-22.31472,-49.06056,,,
79,76,Brazil,20182,Belém,-1.456142,-48.478988,,,
80,76,Brazil,20183,Belo Horizonte,-19.92083,-43.93778,,,
81,76,Brazil,20184,Blumenau,-26.91944,-49.06611,,,
82,76,Brazil,20185,Boa Vista,2.81972,-60.67333,,,
83,76,Brazil,20187,Brasília,-15.77972,-47.92972,,,
84,76,Brazil,20189,Campina Grande,-7.23056,-35.88111,,,
85,76,Brazil,20190,Campinas,-22.910942,-47.065587,,,
86,76,Brazil,20191,Campo Grande,-20.456697,-54.618515,,,
87,76,Brazil,20192,Campos dos Goytacazes,-21.766369,-41.319567,,,
88,76,Brazil,20195,Caruaru,-8.28333,-35.97611,,,
89,76,Brazil,20199,Caxias Do Sul,-29.16806,-51.17944,,,
90,76,Brazil,20204,Cuiabá,-15.59611,-56.09667,,,
91,76,Brazil,20205,Curitiba,-25.42778,-49.27306,,,
92,76,Brazil,20208,Feira De Santana,-12.26667,-38.96667,,,
93,76,Brazil,20209,Florianópolis,-27.59667,-48.54917,,,
94,76,Brazil,20210,Fortaleza,-3.74117,-38.543575,,,
95,76,Brazil,20212,Franca,-20.53861,-47.40083,,,
96,76,Brazil,20214,Goiânia,-16.67861,-49.25389,,,
97,76,Brazil,20286,Grande São Luís,-2.538539,-44.283186,,,
98,76,Brazil,20305,Grande Vitória,-20.305424,-40.307915,,,
99,76,Brazil,20230,João Pessoa,-7.115,-34.86306,,,
100,76,Brazil,20231,Joinville,-26.30444,-48.84556,,,
101,76,Brazil,20233,Juazeiro Do Norte,-7.21306,-39.31528,,,
102,76,Brazil,20234,Juiz De Fora,-21.76417,-43.35028,,,
103,76,Brazil,20235,Jundiaí,-23.188254,-46.891347,,,
104,76,Brazil,20239,Londrina,-23.31028,-51.16278,,,
105,76,Brazil,20242,Macapá,0.03889,-51.06639,,,
106,76,Brazil,20243,Maceió,-9.66583,-35.73528,,,
107,76,Brazil,20244,Manaus,-3.10194,-60.025,,,
108,76,Brazil,20247,Maringá,-23.42528,-51.93861,,,
109,76,Brazil,20249,Montes Claros,-16.735,-43.86167,,,
110,76,Brazil,20251,Natal,-5.795,-35.20944,,,
111,76,Brazil,20257,Pelotas,-31.77194,-52.3425,,,
112,76,Brazil,20258,Petrolina,-9.39861,-40.50083,,,
113,76,Brazil,20261,Piracicaba,-22.72528,-47.64917,,,
114,76,Brazil,20263,Ponta Grossa,-25.095,-50.16194,,,
115,76,Brazil,20264,Pôrto Alegre,-30.03306,-51.23,,,
116,76,Brazil,20265,Pôrto Velho,-8.76194,-63.90389,,,
117,76,Brazil,20268,Recife,-8.05389,-34.88111,,,
118,76,Brazil,20269,Ribeirão  Preto,-21.1775,-47.81028,,,
119,76,Brazil,20270,Rio Branco,-9.97472,-67.81,,,
120,76,Brazil,20272,Rio de Janeiro,-22.90278,-43.2075,,,
121,76,Brazil,20275,Salvador,-12.97111,-38.51083,,,
122,76,Brazil,20284,São José do Rio Preto,-20.81972,-49.37944,,,
123,76,Brazil,20285,São José dos Campos,-23.17944,-45.88694,,,
124,76,Brazil,20287,São Paulo,-23.5475,-46.63611,,,
125,76,Brazil,20292,Sorocaba,-23.50167,-47.45806,,,
126,76,Brazil,20296,Teresina,-5.08917,-42.80194,,,
127,76,Brazil,20299,Uberaba,-19.74833,-47.93194,,,
128,76,Brazil,20300,Uberlândia,-18.91861,-48.27722,,,
129,76,Brazil,20222,Vale do Aço,-19.940497,-43.935443,,,
130,76,Brazil,20308,Volta Redonda,-22.52306,-44.10417,,,
131,100,Bulgaria,20323,Plovdiv,42.15,24.75,,,
132,100,Bulgaria,20327,Sofia,42.69751,23.32415,,,
133,100,Bulgaria,20330,Varna,43.21667,27.91667,,,
134,854,Burkina Faso,23191,Bobo-Dioulasso,11.17715,-4.2979,,,
135,854,Burkina Faso,23192,Ouagadougou,12.36423,-1.53834,,,
136,108,Burundi,20340,Bujumbura,-3.3822,29.3644,,,
137,116,Cambodia,20357,Phnum Pénh (Phnom Penh),11.56245,104.91601,,,
138,120,Cameroon,20360,Bafoussam,5.47366,10.41786,,,
139,120,Cameroon,20361,Bamenda,5.95266,10.15824,,,
140,120,Cameroon,20362,Douala,4.04827,9.70428,,,
141,120,Cameroon,204222,Loum,4.7182,9.7351,,,
142,120,Cameroon,204228,Mbouda,5.62578,10.25517,,,
143,120,Cameroon,20365,Yaoundé,3.86667,11.51667,,,
144,124,Canada,20370,Calgary,51.044072,-114.059314,,,
145,124,Canada,20373,Edmonton,53.543409,-113.503721,,,
146,124,Canada,20376,Halifax,44.647712,-63.581778,,,
147,124,Canada,20377,Hamilton,43.249459,-79.847539,,,
148,124,Canada,20381,Kitchener,43.42537,-80.5112,,,
149,124,Canada,20382,London,42.98339,-81.23304,,,
150,124,Canada,20384,Montréal,45.50884,-73.58781,,,
151,124,Canada,20386,Oshawa,43.90012,-78.84957,,,
152,124,Canada,20387,Ottawa-Gatineau,45.416598,-75.697997,,,
153,124,Canada,20390,Québec,46.81228,-71.21454,,,
154,124,Canada,20398,St. Catharines-Niagara,43.16681,-79.24958,,,
155,124,Canada,20402,Toronto,43.70011,-79.4163,,,
156,124,Canada,20404,Vancouver,49.24966,-123.11934,,,
157,124,Canada,20405,Victoria,48.4329,-123.3693,,,
158,124,Canada,20406,Windsor,42.281051,-83.007948,,,
159,124,Canada,20407,Winnipeg,49.895451,-97.129437,,,
160,140,Central African Republic,20410,Bangui,4.36122,18.55496,,,
161,148,Chad,20420,N'Djaména,12.10672,15.0444,,,
162,152,Chile,20421,Antofagasta,-23.65,-70.4,,,
163,152,Chile,205346,Concepción,-36.82699,-73.04977,,,
164,152,Chile,20430,Iquique,-20.22083,-70.14306,,,
165,152,Chile,206161,La Serena-Coquimbo,-29.90453,-71.24894,,,
166,152,Chile,20439,Santiago,-33.45694,-70.64827,,,
167,152,Chile,20442,Temuco,-38.73333,-72.6,,,
168,152,Chile,205344,Valparaíso,-33.03932,-71.62725,,,
169,156,China,20447,Akesu,41.169547,80.262646,,,
170,156,China,23575,Ankang,32.691183,109.029694,,,
171,156,China,20450,Anqing,30.542972,117.0533,,,
172,156,China,23578,Anqiu,36.43417,119.1925,,,
173,156,China,20451,Anshan,41.12361,122.99,,,
174,156,China,20452,Anshun,26.24441,105.932401,,,
175,156,China,20453,Anyang,36.094436,114.35034,,,
176,156,China,20455,Baicheng,45.618331,122.841797,,,
177,156,China,23866,Baishan,41.937333,126.422863,,,
178,156,China,20457,Baiyin,36.548652,104.183117,,,
179,156,China,20458,Baoding,38.85111,115.49028,,,
180,156,China,20459,Baoji,34.365118,107.200449,,,
181,156,China,20460,Baotou,40.65222,109.82222,,,
182,156,China,205686,Bayannaoer,40.750478,107.40523,,,
183,156,China,23580,Bazhong,31.866216,106.732539,,,
184,156,China,20463,Beihai,21.478511,109.119973,,,
185,156,China,20464,Beijing,39.9075,116.39723,,,
186,156,China,20466,Bengbu,32.94083,117.36083,,,
187,156,China,20467,Benxi,41.28861,123.765,,,
188,156,China,23582,Bijie,27.306953,105.28368,,,
189,156,China,23583,Binzhou,37.381079,118.010852,,,
190,156,China,20469,Botou,38.06667,116.56667,,,
191,156,China,23584,Bozhou,33.870279,115.776985,,,
192,156,China,20470,Cangzhou,38.31667,116.86667,,,
193,156,China,23585,Cenxi,22.919083,110.994456,,,
194,156,China,20471,Changchun,43.882494,125.293964,,,
195,156,China,20472,Changde,29.04638,111.6783,,,
196,156,China,23586,Changge,34.222382,113.773631,,,
197,156,China,20473,Changji,44.011737,87.303752,,,
198,156,China,23588,Changning,26.407769,112.395699,,,
199,156,China,20474,Changsha,28.227394,112.938269,,,
200,156,China,23865,Changshu,31.653905,120.746654,,,
201,156,China,23589,Changyi,36.854566,119.391267,,,
202,156,China,20475,Changzhi,36.192128,113.115533,,,
203,156,China,20476,Changzhou Jiangsu,31.794314,119.958917,,,
204,156,China,23590,Chaohu,31.6,117.86667,,,
205,156,China,20477,Chaoyang,41.577292,120.451132,,,
206,156,China,20478,Chaozhou,23.66513,116.63786,,,
207,156,China,20479,Chengde,40.967162,117.932222,,,
208,156,China,20480,Chengdu,30.66667,104.06667,,,
209,156,China,20481,Chenzhou,25.8,113.03333,,,
210,156,China,20483,Chifeng,42.264602,118.915236,,,
211,156,China,23868,Chizhou,30.65778,117.48306,,,
212,156,China,20484,Chongqing,29.56278,106.55278,,,
213,156,China,20485,Chuxiong,25.044539,101.541009,,,
214,156,China,20486,Chuzhou,32.29853,118.316399,,,
215,156,China,23595,Cixi,30.176116,121.252392,,,
216,156,China,23869,Dafeng,33.196372,120.456129,,,
217,156,China,20488,Dali,25.590024,100.223521,,,
218,156,China,20489,Dalian,38.913811,121.602322,,,
219,156,China,20490,Dandong,40.119831,124.373852,,,
220,156,China,23864,Danyang,32.000797,119.574455,,,
221,156,China,20493,Daqing,46.58333,125,,,
222,156,China,23871,Dashiqiao,40.63732,122.50251,,,
223,156,China,20494,Datong,40.080522,113.293045,,,
224,156,China,23597,Daye,30.098674,114.970308,,,
225,156,China,205677,Dazhou,31.21592,107.50092,,,
226,156,China,23600,Dengfeng,34.45528,113.02806,,,
227,156,China,23601,Dengzhou,32.68222,112.08194,,,
228,156,China,23603,Deyang,31.13019,104.38198,,,
229,156,China,20497,Dezhou,37.451765,116.300973,,,
230,156,China,23606,Donggang,39.883429,124.146248,,,
231,156,China,20499,Dongguan,23.02116,113.741411,,,
232,156,China,23607,Dongtai,32.85231,120.30947,,,
233,156,China,23609,Dongyang,29.275294,120.230273,,,
234,156,China,23610,Dongying,37.453273,118.578519,,,
235,156,China,23611,Dujiangyan,30.996625,103.628081,,,
236,156,China,23612,Enshi,30.290188,109.47854,,,
237,156,China,205656,Erduosi (Ordoss),39.591741,109.766573,,,
238,156,China,23613,Ezhou,30.400061,114.884582,,,
239,156,China,23880,Fangchenggang,21.765917,108.35395,,,
240,156,China,23614,Feicheng,36.185412,116.767394,,,
241,156,China,23615,Fengcheng,28.178737,115.775836,,,
242,156,China,20506,Foshan,23.022778,113.119953,,,
243,156,China,23617,Fuan,27.088055,119.645351,,,
244,156,China,23619,Fuqing,25.725,119.37944,,,
245,156,China,20509,Fushun Liaoning,41.880737,123.946698,,,
246,156,China,20510,Fuxin,42.01556,121.65889,,,
247,156,China,20511,Fuyang,32.889497,115.815213,,,
248,156,China,23620,Fuyang,30.058484,119.943957,,,
249,156,China,20513,Fuzhou Fujian,26.075352,119.298946,,,
250,156,China,20514,Fuzhou Jiangxi,27.98119,116.355676,,,
251,156,China,20515,Ganzhou,25.85,114.93333,,,
252,156,China,23621,Gaoan,28.427086,115.3722,,,
253,156,China,23622,Gaocheng,38.023261,114.840049,,,
254,156,China,23623,Gaomi,36.38333,119.75278,,,
255,156,China,23627,Gaoyou,32.779085,119.447041,,,
256,156,China,23862,Gaozhou,21.915852,110.849874,,,
257,156,China,23628,Gongyi,34.76,112.97139,,,
258,156,China,23629,Gongzhuling,43.50075,124.81979,,,
259,156,China,23630,Guang'an,30.463918,106.63512,,,
260,156,China,23632,Guangyuan,32.44202,105.823,,,
261,156,China,20517,Guangzhou Guangdong,23.125457,113.257374,,,
262,156,China,23633,Guigang,23.09639,109.60917,,,
263,156,China,20518,Guilin,25.28194,110.28639,,,
264,156,China,23634,Guiping,23.39336,110.07437,,,
265,156,China,20519,Guiyang,26.58333,106.71667,,,
266,156,China,23637,Haerbin,45.756325,126.646688,,,
267,156,China,23638,Haicheng,40.855239,122.743396,,,
268,156,China,23639,Haikou,20.027423,110.330071,,,
269,156,China,23643,Haimen,31.895193,121.168399,,,
270,156,China,23644,Haining,30.527288,120.68968,,,
271,156,China,20521,Hami,42.825945,93.516917,,,
272,156,China,23646,Hanchuan,30.651646,113.832908,,,
273,156,China,20523,Handan,36.60056,114.46778,,,
274,156,China,20524,Hangzhou,30.29365,120.16142,,,
275,156,China,20525,Hanzhong,33.07278,107.03028,,,
276,156,China,20527,Hebi,35.747018,114.295632,,,
277,156,China,20529,Hefei,31.86389,117.28083,,,
278,156,China,20530,Hegang,47.344338,130.293701,,,
279,156,China,23648,Hejian,38.442546,116.094913,,,
280,156,China,20532,Hengshui,37.741068,115.678068,,,
281,156,China,20533,Hengyang,26.884064,112.62509,,,
282,156,China,23886,Heshan,22.765897,112.959032,,,
283,156,China,20536,Heyuan,23.750937,114.699168,,,
284,156,China,20537,Heze,35.245103,115.459799,,,
285,156,China,23651,Hezhou,24.41518,111.554009,,,
286,156,China,20551,Hohhot,40.81056,111.65222,,,
287,156,China,20541,Hsinchu,24.805781,120.9703,,,
288,156,China,20543,Huai'an,33.606953,119.014801,,,
289,156,China,20544,Huaibei,33.954851,116.792878,,,
290,156,China,20545,Huaihua,27.54944,109.95917,,,
291,156,China,20546,Huainan,32.62639,116.99694,,,
292,156,China,20549,Huangshan,29.712665,118.322512,,,
293,156,China,20550,Huangshi,30.20678,115.085462,,,
294,156,China,20553,Huizhou,23.08333,114.4,,,
295,156,China,20575,Huludao,40.75242,120.83552,,,
296,156,China,20556,Huzhou,30.8703,120.0933,,,
298,156,China,20558,Ji'an Jiangxi,27.1177,114.980419,,,
308,156,China,20567,Ji'nan Shandong,36.676721,116.997142,,,
297,156,China,20557,Jiamusi,46.797936,130.330183,,,
299,156,China,20560,Jiangmen,22.58333,113.08333,,,
300,156,China,23663,Jiangyin,31.915679,120.28096,,,
301,156,China,23667,Jianyang,30.392089,104.544758,,,
302,156,China,23669,Jiaozhou,36.28389,120.00333,,,
303,156,China,20563,Jiaozuo,35.23972,113.23306,,,
304,156,China,20564,Jiaxing,30.766487,120.748231,,,
305,156,China,23672,Jieyang,23.552629,116.372145,,,
306,156,China,20566,Jilin,43.85083,126.56028,,,
307,156,China,23673,Jimo,36.38972,120.46222,,,
309,156,China,23674,Jincheng,35.486475,112.851484,,,
310,156,China,20569,Jingdezhen,29.2947,117.20789,,,
311,156,China,23677,Jingjiang,32.011966,120.262719,,,
312,156,China,20570,Jingmen,31.041652,112.200343,,,
313,156,China,23678,Jingzhou Hubei,30.327567,112.248367,,,
314,156,China,20571,Jinhua,29.080651,119.646369,,,
315,156,China,20572,Jining Shandong,35.414595,116.584704,,,
316,156,China,23679,Jinjiang,24.810636,118.577293,,,
317,156,China,23681,Jinzhong,37.688161,112.734878,,,
318,156,China,20576,Jinzhou,41.10778,121.14167,,,
319,156,China,20578,Jiujiang,29.704105,116.001302,,,
320,156,China,20579,Jixi Heilongjiang,45.295804,130.970134,,,
321,156,China,23832,Jiyuan,35.09264,112.583273,,,
322,156,China,23833,Jurong,31.949802,119.160916,,,
323,156,China,20581,Kaifeng,34.79111,114.34833,,,
324,156,China,20582,Kaili,26.583431,107.971854,,,
325,156,China,23834,Kaiping,22.372447,112.702597,,,
326,156,China,20584,Kaohsiung,22.625962,120.31546,,,
327,156,China,20586,Keelung,25.130874,121.736127,,,
328,156,China,20587,Kelamayi,45.594143,84.872929,,,
329,156,China,20588,Kuerle,41.764562,86.147227,,,
330,156,China,20590,Kunming,25.03889,102.71833,,,
331,156,China,23836,Kunshan ,31.388114,120.962872,,,
332,156,China,205657,Laibin,23.737978,109.226765,,,
333,156,China,23837,Laiwu,36.207444,117.672021,,,
334,156,China,23838,Laixi,36.865132,120.52381,,,
335,156,China,23839,Laiyang,36.97583,120.71361,,,
336,156,China,23840,Laizhou,37.179653,119.943045,,,
337,156,China,20591,Langfang,39.50972,116.69472,,,
338,156,China,20592,Lanzhou,36.05639,103.79222,,,
339,156,China,23847,Leiyang,26.416884,112.850257,,,
340,156,China,23850,Leping,28.971963,117.128335,,,
341,156,China,20596,Leshan,29.576174,103.75896,,,
342,156,China,20597,Lianyungang,34.59687,119.175775,,,
343,156,China,23854,Liaocheng,36.455124,115.982616,,,
344,156,China,20598,Liaoyang,41.27194,123.17306,,,
345,156,China,20599,Liaoyuan,42.90361,125.13583,,,
346,156,China,23732,Liling,27.66667,113.5,,,
347,156,China,23733,Lin'an,30.23583,119.71806,,,
348,156,China,20600,Linfen,36.08889,111.51889,,,
349,156,China,23738,Linhai,28.852887,121.140343,,,
350,156,China,20602,Linqing,36.84556,115.71167,,,
351,156,China,20604,Linyi Shandong,35.054142,118.333365,,,
352,156,China,23740,Linzhou,36.071045,113.815557,,,
353,156,China,20605,Lishui Zhejiang,28.456982,119.919233,,,
354,156,China,20610,Liuan,31.754268,116.498142,,,
355,156,China,20613,Liupanshui,26.592289,104.837711,,,
356,156,China,23744,Liuyang,28.15,113.63333,,,
357,156,China,20606,Liuzhou,24.301725,109.378368,,,
358,156,China,23746,Liyang,31.422985,119.483691,,,
359,156,China,23747,Longhai,24.446231,117.809024,,,
360,156,China,23748,Longkou,37.641712,120.519875,,,
361,156,China,20608,Longyan,25.10722,117.0225,,,
362,156,China,20609,Loudi,27.73444,111.99444,,,
363,156,China,23752,Luoding,22.770797,111.565963,,,
364,156,China,20611,Luohe,33.573149,114.024063,,,
365,156,China,20612,Luoyang,34.618562,112.456179,,,
366,156,China,20614,Luzhou,28.877528,105.440814,,,
367,156,China,205666,Lvliang,37.519533,111.131763,,,
368,156,China,20615,Ma'anshan,31.707085,118.503768,,,
369,156,China,23755,Macheng,31.17833,115.03194,,,
370,156,China,20617,Maoming,21.662659,110.923448,,,
371,156,China,23757,Meishan,30.076148,103.845638,,,
372,156,China,20618,Meizhou,24.298896,116.12139,,,
373,156,China,20619,Mianyang Sichuan,31.483888,104.737019,,,
374,156,China,23760,Miluo,28.806933,113.072064,,,
375,156,China,20621,Mudanjiang,44.58333,129.6,,,
376,156,China,20622,Nanchang,28.68333,115.88333,,,
377,156,China,20623,Nanchong,30.79508,106.08474,,,
378,156,China,20625,Nanjing Jiangsu,32.048183,118.789812,,,
379,156,China,23684,Nankang,25.665464,114.755751,,,
380,156,China,20626,Nanning,22.81667,108.31667,,,
381,156,China,20628,Nantong,31.990413,120.865451,,,
382,156,China,20629,Nanyang   Henan,32.999941,112.52593,,,
383,156,China,20630,Neijiang,29.58354,105.06216,,,
384,156,China,20631,Ningbo,29.87819,121.54945,,,
385,156,China,20633,Panjin,41.121893,122.070073,,,
386,156,China,23690,Panzhihua,26.58509,101.71276,,,
387,156,China,20634,Pingdingshan  Henan,33.74166,113.304003,,,
388,156,China,23693,Pingdu,36.780791,119.959214,,,
389,156,China,23694,Pinghu,30.703667,121.009699,,,
390,156,China,20636,Pingxiang  Jiangxi,27.634816,113.847689,,,
391,156,China,23695,Pizhou,34.31139,117.95028,,,
392,156,China,23696,Pulandian,39.400329,121.969362,,,
393,156,China,23697,Puning,23.296655,116.164678,,,
394,156,China,20639,Putian,25.43944,119.01028,,,
395,156,China,20640,Puyang,35.77051,115.043769,,,
396,156,China,23827,Qianjiang,30.422118,112.892537,,,
397,156,China,20641,Qingdao,36.09861,120.37194,,,
398,156,China,20643,Qingyuan,23.714582,113.029707,,,
399,156,China,23830,Qingzhou,36.684528,118.479622,,,
400,156,China,20644,Qinhuangdao,39.93167,119.58833,,,
401,156,China,23698,Qinzhou,21.96808,108.62136,,,
402,156,China,20646,Qiqihaer,47.34083,123.96722,,,
403,156,China,20647,Qitaihe,45.767053,130.975,,,
404,156,China,20648,Quanzhou,24.896763,118.599688,,,
405,156,China,23703,Qufu,35.59667,116.99111,,,
406,156,China,23704,Qujing,25.489377,103.797682,,,
407,156,China,20649,Quzhou,28.95944,118.86861,,,
408,156,China,23705,Renqiu,38.69889,116.09361,,,
409,156,China,23706,Rizhao,35.40336,119.511996,,,
410,156,China,23707,Rongcheng,37.15396,122.436268,,,
411,156,China,23709,Ruian,27.780759,120.675519,,,
412,156,China,23714,Sanhe,39.981938,117.07133,,,
413,156,China,20652,Sanmenxia,34.771452,111.20379,,,
414,156,China,20653,Sanming,26.264076,117.619053,,,
415,156,China,20654,Sanya,18.267573,109.503412,,,
416,156,China,20656,Shanghai,31.22222,121.45806,,,
417,156,China,20657,Shangqiu,34.424422,115.651378,,,
418,156,China,20658,Shangrao,28.460359,117.953064,,,
419,156,China,23716,Shangyu,30.031143,120.872182,,,
420,156,China,20659,Shantou,23.36814,116.71479,,,
421,156,China,20660,Shanwei,22.778662,115.356782,,,
422,156,China,20661,Shaoguan,24.8,113.58333,,,
423,156,China,20663,Shaoxing,30.011,120.5715,,,
424,156,China,20664,Shaoyang,27.240329,111.470907,,,
425,156,China,23719,Shengzhou,29.593023,120.821389,,,
426,156,China,20666,Shenyang,41.79222,123.43278,,,
427,156,China,20667,Shenzhen,22.541487,114.063427,,,
428,156,China,20668,Shihezi,44.307503,86.03204,,,
429,156,China,20669,Shijiazhuang,38.041845,114.510846,,,
430,156,China,20670,Shishi,24.736683,118.634046,,,
431,156,China,20671,Shiyan,32.644469,110.783587,,,
432,156,China,20672,Shizuishan,39.2333,106.7694,,,
433,156,China,23724,Shouguang,36.878792,118.748212,,,
434,156,China,20674,Shuangyashan,46.63611,131.15389,,,
435,156,China,23729,Shuozhou,39.31583,112.4225,,,
436,156,China,23730,Sihui,23.346173,112.695815,,,
437,156,China,20675,Siping,43.16333,124.36861,,,
438,156,China,23823,Songyuan,27.6217,119.0592,,,
439,156,China,23821,Suihua,46.636597,126.982968,,,
440,156,China,20676,Suining  Sichuan,30.523613,105.563901,,,
441,156,China,23820,Suizhou,31.71111,113.36306,,,
442,156,China,20677,Suqian,33.968102,118.292384,,,
443,156,China,20679,Suzhou  Anhui,33.635918,116.974726,,,
444,156,China,20678,Suzhou  Jiangsu,31.302068,120.585259,,,
445,156,China,20681,Taian  Shandong,36.190371,117.119081,,,
446,156,China,23819,Taicang,31.454873,121.117171,,,
447,156,China,20682,Taichung,24.141613,120.67274,,,
448,156,China,20683,Tainan,23.131587,120.259004,,,
449,156,China,20684,Taipei,25.047009,121.54568,,,
450,156,China,23818,Taishan,22.250432,112.794336,,,
451,156,China,23817,Taixing,32.16667,120.01361,,,
452,156,China,20685,Taiyuan  Shanxi,37.861899,112.551572,,,
454,156,China,23816,Taizhou  Zhejiang,28.637219,121.418459,,,
453,156,China,20686,Taizhou Jiangsu,32.494536,119.902861,,,
455,156,China,20687,Tangshan Hebei,39.628484,118.179931,,,
456,156,China,23907,Tengzhou,35.084539,117.162387,,,
457,156,China,20689,Tianjin,39.108842,117.18862,,,
458,156,China,20690,Tianmen,30.653449,113.160506,,,
459,156,China,20691,Tianshui,34.580929,105.723718,,,
460,156,China,20694,Tieling,42.29306,123.84139,,,
461,156,China,23815,Tongcheng,31.053789,116.95557,,,
462,156,China,20695,Tongchuan,34.8988,108.95056,,,
463,156,China,20696,Tonghua,41.720071,125.928089,,,
464,156,China,20698,Tongliao,43.6125,122.26528,,,
465,156,China,20699,Tongling,30.936306,117.810916,,,
466,156,China,23814,Tongxiang,30.629604,120.55359,,,
467,156,China,20704,Ürümqi (Wulumqi),43.82532,87.603835,,,
468,156,China,23813,Wafangdian ,39.626683,121.994937,,,
469,156,China,20706,Weifang,36.71,119.10194,,,
470,156,China,20707,Weihai,37.50167,122.11361,,,
471,156,China,23812,Weinan,34.50355,109.50891,,,
472,156,China,23810,Wenling,28.375791,121.378138,,,
473,156,China,20710,Wenzhou,27.99942,120.66682,,,
474,156,China,23807,Wuchuan ,21.431015,110.776222,,,
475,156,China,20711,Wuhai,39.66472,106.81222,,,
476,156,China,20712,Wuhan,30.58333,114.26667,,,
477,156,China,20713,Wuhu Anhui,31.333557,118.381175,,,
478,156,China,23801,Wuwei,37.925127,102.633659,,,
479,156,China,20715,Wuxi Jiangsu,31.536681,120.298556,,,
480,156,China,20719,Wuzhou,23.483239,111.274132,,,
482,156,China,20721,Xi'an Shaanxi,34.289413,108.940242,,,
481,156,China,20720,Xiamen,24.47979,118.08187,,,
483,156,China,23800,Xiangcheng,33.444151,114.898161,,,
484,156,China,20723,Xiangtan Hunan,27.828265,112.926952,,,
485,156,China,205932,Xiangyang,32.008764,112.144038,,,
486,156,China,20725,Xianning,29.835577,114.330269,,,
487,156,China,20726,Xiantao,30.371768,113.448402,,,
488,156,China,20727,Xianyang Shaanxi,34.338637,108.701548,,,
489,156,China,20728,Xiaogan,30.925566,113.91746,,,
490,156,China,20733,Xinghua,32.937332,119.838732,,,
491,156,China,23797,Xingning,24.145484,115.725321,,,
492,156,China,20734,Xingtai,37.06306,114.49417,,,
493,156,China,23912,Xingyang,34.791577,113.383427,,,
494,156,China,20735,Xingyi Guizhou,25.09446,104.898285,,,
495,156,China,20736,Xining,36.61667,101.76667,,,
496,156,China,23914,Xinmi,34.535524,113.389003,,,
497,156,China,20738,Xintai,35.90056,117.75194,,,
498,156,China,20739,Xinxiang,35.298867,113.901477,,,
499,156,China,20740,Xinyang,32.128856,114.074643,,,
500,156,China,20741,Xinyi,34.366827,118.343018,,,
501,156,China,23793,Xinyi,22.358519,110.938758,,,
502,156,China,20742,Xinyu,27.80429,114.93335,,,
503,156,China,23792,Xinzheng,34.398508,113.736824,,,
504,156,China,20743,Xinzhou,38.417329,112.733107,,,
505,156,China,23916,Xuancheng,30.948973,118.752396,,,
506,156,China,20745,Xuchang,34.01667,113.81667,,,
507,156,China,20746,Xuzhou,34.263685,117.186605,,,
508,156,China,20749,Yanan,36.596722,109.483756,,,
509,156,China,20750,Yancheng Jiangsu,33.356867,120.155148,,,
510,156,China,20751,Yangjiang,21.861445,111.956303,,,
511,156,China,20752,Yangquan,37.85578,113.582568,,,
512,156,China,20753,Yangzhou,32.391492,119.423807,,,
513,156,China,20754,Yanji,42.9075,129.50778,,,
514,156,China,23919,Yanshi,34.729344,112.779926,,,
515,156,China,20755,Yantai,37.465087,121.437152,,,
516,156,China,20756,Yibin,28.76667,104.62383,,,
517,156,China,20757,Yichang,30.71444,111.28472,,,
518,156,China,20758,Yichun Heilongjiang,47.724475,128.83367,,,
519,156,China,20759,Yichun Jiangxi,27.806158,114.389221,,,
520,156,China,20761,Yinchuan,38.46806,106.27306,,,
521,156,China,23922,Yingde,24.197408,113.405468,,,
522,156,China,20763,Yingkou,40.66482,122.22833,,,
523,156,China,20765,Yining,43.919634,81.316125,,,
524,156,China,20766,Yiwu,29.31506,120.07676,,,
525,156,China,20767,Yixing,31.359926,119.776306,,,
526,156,China,20768,Yiyang Hunan,28.566585,112.348737,,,
527,156,China,23788,Yongcheng,33.93177,116.44338,,,
528,156,China,23785,Yongkang,28.903339,120.032761,,,
529,156,China,20771,Yongzhou,26.435132,111.606348,,,
530,156,China,23784,Yuanjiang,28.843025,112.364162,,,
531,156,China,23891,Yueqing,28.1194,120.9612,,,
532,156,China,20773,Yueyang,29.372239,113.115285,,,
533,156,China,20774,Yulin Guangxi,22.633869,110.153301,,,
534,156,China,20775,Yulin Shaanxi,38.28384,109.731486,,,
535,156,China,20777,Yuncheng,35.02306,110.99278,,,
536,156,China,23780,Yushu,44.824348,126.551011,,,
537,156,China,20778,Yuxi,24.3567,102.539544,,,
538,156,China,20779,Yuyao,30.042582,121.15306,,,
539,156,China,20782,Zaoyang,32.12722,112.75417,,,
540,156,China,20783,Zaozhuang,34.86472,117.55417,,,
541,156,China,23779,Zengcheng,23.294152,113.825552,,,
542,156,China,20785,Zhangjiagang,31.865,120.53889,,,
543,156,China,20784,Zhangjiakou,40.81,114.87944,,,
544,156,China,23775,Zhangqiu,36.701031,117.52711,,,
545,156,China,20787,Zhangye,38.93417,100.45167,,,
546,156,China,20788,Zhangzhou,24.5133,117.6556,,,
547,156,China,20789,Zhanjiang,21.266159,110.359639,,,
548,156,China,20790,Zhaodong,46.066829,125.989643,,,
549,156,China,20791,Zhaoqing,23.05116,112.45972,,,
550,156,China,23925,Zhaoyuan,37.35917,120.39639,,,
551,156,China,20793,Zhengzhou,34.75778,113.64861,,,
552,156,China,20794,Zhenjiang Jiangsu,32.202713,119.44894,,,
553,156,China,23773,Zhongshan,22.517992,113.383938,,,
554,156,China,23772,Zhongxiang,31.16611,112.58306,,,
555,156,China,20796,Zhoukou,33.617368,114.646126,,,
556,156,China,23771,Zhoushan,29.988548,122.213475,,,
557,156,China,23770,Zhuanghe,39.705122,122.968765,,,
558,156,China,23769,Zhucheng,35.99472,119.3975,,,
559,156,China,20797,Zhuhai,22.2769,113.5678,,,
560,156,China,23768,Zhuji,29.713158,120.236819,,,
561,156,China,20798,Zhumadian,32.97944,114.02944,,,
562,156,China,20800,Zhuzhou,27.83333,113.15,,,
563,156,China,20801,Zibo,36.79056,118.06333,,,
564,156,China,20802,Zigong,29.34162,104.77689,,,
565,156,China,23767,Ziyang,30.12563,104.630483,,,
566,156,China,20804,Zunyi,27.711309,106.936512,,,
568,446,China  Macao SAR,21791,Macao,22.20056,113.54611,,,
569,170,Colombia,20806,Armenia,4.53389,-75.68111,,,
570,170,Colombia,20808,Barranquilla,10.96389,-74.79639,,,
571,170,Colombia,20837,Bogotá,4.60971,-74.08175,,,
572,170,Colombia,20809,Bucaramanga,7.12539,-73.1198,,,
573,170,Colombia,20810,Buenaventura,3.885028,-77.07001,,,
574,170,Colombia,20812,Cali,3.43722,-76.5225,,,
575,170,Colombia,20813,Cartagena,10.39972,-75.51444,,,
576,170,Colombia,20816,Cúcuta,7.89391,-72.50782,,,
577,170,Colombia,20821,Ibagué,4.43889,-75.23222,,,
578,170,Colombia,20825,Manizales,5.06889,-75.51738,,,
579,170,Colombia,20827,Medellín,6.25184,-75.56359,,,
580,170,Colombia,20828,Monteria,8.74798,-75.88143,,,
581,170,Colombia,20829,Neiva,2.9273,-75.28188,,,
582,170,Colombia,20832,Pasto,1.21361,-77.28111,,,
583,170,Colombia,20833,Pereira,4.81333,-75.69611,,,
584,170,Colombia,20838,Santa Marta,11.24079,-74.19904,,,
585,170,Colombia,20844,Valledupar,10.46314,-73.25322,,,
586,170,Colombia,20845,Villavicencio,4.142,-73.62664,,,
587,178,Congo,20848,Brazzaville,-4.26583,15.28318,,,
588,178,Congo,20849,Pointe-Noire,-4.77609,11.86352,,,
589,188,Costa Rica,20861,San José,9.927817,-84.080685,,,
590,384,Côte d'Ivoire,21602,Abidjan,5.345339,-4.026789,,,
591,384,Côte d'Ivoire,21603,Bouake,7.69385,-5.03031,,,
592,384,Côte d'Ivoire,23547,San Pedro,4.7333333,-6.6166667,,,
593,191,Croatia,20865,Zagreb,45.81444,15.97798,,,
594,192,Cuba,20867,Camaguey,21.38083,-77.91694,,,
595,192,Cuba,20871,Holguin,20.88722,-76.26306,,,
596,192,Cuba,20870,La Habana (Havana),23.119541,-82.378493,,,
597,192,Cuba,20876,Santiago de Cuba,20.02472,-75.82194,,,
598,203,Czech Republic,20881,Brno,49.19522,16.60796,,,
599,203,Czech Republic,20887,Praha (Prague),50.08804,14.42076,,,
600,408,Dem. People's Republic of Korea,21713,Chongjin,41.79556,129.77583,,,
601,408,Dem. People's Republic of Korea,21715,Hamhung,39.91833,127.53639,,,
602,408,Dem. People's Republic of Korea,21722,P'yongyang,39.03385,125.75432,,,
603,408,Dem. People's Republic of Korea,21724,Sinuiju,40.10056,124.39806,,,
604,408,Dem. People's Republic of Korea,21725,Wonsan,39.15278,127.44361,,,
605,180,Democratic Republic of the Congo,20850,Bukavu,-2.50833,28.86083,,,
606,180,Democratic Republic of the Congo,205455,Bunia,1.566666667,30.25,,,
607,180,Democratic Republic of the Congo,205453,Goma,-1.679166667,29.22277778,,,
608,180,Democratic Republic of the Congo,20851,Kananga,-5.89624,22.41659,,,
609,180,Democratic Republic of the Congo,20852,Kikwit,-5.04098,18.81619,,,
610,180,Democratic Republic of the Congo,20853,Kinshasa,-4.32758,15.31357,,,
611,180,Democratic Republic of the Congo,20854,Kisangani,0.51667,25.2,,,
612,180,Democratic Republic of the Congo,23555,Kolwezi,-10.71484,25.46674,,,
613,180,Democratic Republic of the Congo,20855,Likasi,-10.98139,26.73333,,,
614,180,Democratic Republic of the Congo,20856,Lubumbashi,-11.66089,27.47938,,,
615,180,Democratic Republic of the Congo,20857,Matadi,-5.8177,13.4717,,,
616,180,Democratic Republic of the Congo,20858,Mbandaka,0.04865,18.26034,,,
617,180,Democratic Republic of the Congo,20859,Mbuji-Mayi,-6.15,23.6,,,
618,180,Democratic Republic of the Congo,204243,Tshikapa,-6.41621,20.79995,,,
619,180,Democratic Republic of the Congo,205454,Uvira,-3.39534,29.13779,,,
620,208,Denmark,20894,København (Copenhagen),55.67594,12.56553,,,
621,262,Djibouti,21005,Djibouti,11.58767,43.14468,,,
622,214,Dominican Republic,20897,Santiago,19.460205,-70.699686,,,
623,214,Dominican Republic,20898,Santo Domingo,18.489591,-69.901805,,,
624,218,Ecuador,20900,Cuenca,-2.88333,-78.98333,,,
625,218,Ecuador,20903,Guayaquil,-2.16667,-79.9,,,
626,218,Ecuador,20910,Quito,-0.22985,-78.52495,,,
627,218,Ecuador,20912,Santo Domingo,-0.253431,-79.169555,,,
628,818,Egypt,22814,Al-Fayyum,29.30995,30.8418,,,
629,818,Egypt,22804,Al-Iskandariyah (Alexandria),31.192471,29.904596,,,
630,818,Egypt,22815,Al-Ismailiyah,30.60427,32.27225,,,
631,818,Egypt,22806,Al-Mahallah al-Kubra,30.9745,31.16499,,,
632,818,Egypt,22819,Al-Mansurah,31.03637,31.38069,,,
633,818,Egypt,22812,Al-Qahirah (Cairo),30.039173,31.239411,,,
634,818,Egypt,22827,As-Suways,29.968133,32.547497,,,
635,818,Egypt,22808,Aswan,24.09343,32.90704,,,
636,818,Egypt,22807,Asyut,27.18096,31.18368,,,
637,818,Egypt,22829,Az-Zaqazig,30.5875,31.50194444,,,
638,818,Egypt,22823,Bur Sa'id,31.25654,32.28412,,,
639,818,Egypt,22816,Kafr-ad-Dawwar,31.13385,30.12843,,,
640,818,Egypt,22828,Tanta,30.787176,30.999539,,,
641,222,El Salvador,20917,San Salvador,13.68935,-89.18718,,,
642,232,Eritrea,20931,Asmara,15.33333,38.93333,,,
643,233,Estonia,20932,Tallinn,59.43696,24.75353,,,
644,231,Ethiopia,20921,Addis Ababa,9.02497,38.74689,,,
645,231,Ethiopia,20929,Mekele,13.49667,39.47528,,,
646,246,Finland,20937,Helsinki,60.169246,24.940216,,,
647,246,Finland,20942,Tampere,61.49911,23.78712,,,
654,250,France,20972,Lyon,45.74846,4.84671,,1970,1983
659,250,France,20985,Paris,48.85341,2.3488,,1968,1983
657,250,France,20981,Nantes,47.21725,-1.55336,,1989,1990
666,250,France,20998,Tours,47.38333,0.68333,,1974,1990
651,250,France,20960,Douai-Lens,50.368243,3.079497,,1968,1993
653,250,France,20969,Lille,50.63297,3.05858,,1968,1993
648,250,France,20948,Avignon,43.94834,4.80892,,1970,2001
655,250,France,20973,Marseille-Aix-en-Provence,43.528414,5.443298,,1970,2001
656,250,France,20978,Montpellier,43.61092,3.87723,,1973,2001
663,250,France,20994,Strasbourg,48.58342,7.74296,,1977,2016
650,250,France,20952,Bordeaux,44.84044,-0.5805,,1981,2017
660,250,France,20990,Rennes,48.11198,-1.67429,,1980,2017
649,250,France,20951,Béthune,50.53333,2.63333,,1968,
652,250,France,20963,Grenoble,45.16667,5.71667,,1976,
658,250,France,20982,Nice-Cannes,43.6646,7.15339,,1973,
661,250,France,20991,Rouen,49.44313,1.09932,,1972,
662,250,France,20992,Saint-Étienne,45.43333,4.4,,1970,
664,250,France,20996,Toulon,43.123989,5.933225,,1975,
665,250,France,20997,Toulouse,43.60426,1.44367,,1979,
667,250,France,21001,Valenciennes,50.35,3.53333,,1972,
668,266,Gabon,21006,Libreville,0.3925,9.45365,,,
669,270,Gambia,21012,Banjul,13.453099,-16.679433,,,
670,268,Georgia,21011,Tbilisi,41.69411,44.83368,,,
671,276,Germany,204296,Berlin,52.52437,13.41053,,,
672,276,Germany,204297,Bielefeld,52.03333,8.53333,,,
673,276,Germany,204298,Bochum,51.48333,7.21667,,,
674,276,Germany,204299,Bonn,50.73438,7.09548,,,
675,276,Germany,204303,Bremen,53.07516,8.80777,,,
676,276,Germany,204310,Dortmund,51.51667,7.45,,,
677,276,Germany,204437,Dresden,51.05089,13.73832,,,
678,276,Germany,204312,Duesseldorf,51.22172,6.77616,,,
679,276,Germany,204311,Duisburg,51.43333,6.75,,,
680,276,Germany,204316,Essen,51.45374,7.010388,,,
681,276,Germany,204332,Frankfurt am Main,50.11667,8.68333,,,
682,276,Germany,204341,Hamburg,53.55,10,,,
683,276,Germany,204343,Hannover,52.37052,9.73322,,,
684,276,Germany,204352,Karlsruhe,49.00472,8.38583,,,
685,276,Germany,204358,Köln (Cologne),50.93333,6.95,,,
686,276,Germany,204439,Leipzig,51.33962,12.37129,,,
687,276,Germany,204367,Mannheim,49.48833,8.46472,,,
688,276,Germany,204372,Muenster (Westfalen),51.96236,7.62571,,,
689,276,Germany,204371,München (Munich),48.137076,11.573377,,,
690,276,Germany,204376,Nurenberg,49.450418,11.075791,,,
691,276,Germany,204397,Stuttgart,48.78232,9.17702,,,
692,276,Germany,204410,Wuppertal,51.26667,7.18333,,,
693,288,Ghana,21107,Accra,5.55602,-0.1969,,,
694,288,Ghana,21108,Kumasi,6.68848,-1.62443,,,
695,288,Ghana,21109,Sekondi Takoradi,4.934,-1.7137,,,
696,288,Ghana,21110,Tamale,9.40078,-0.8393,,,
697,300,Greece,21113,Athínai (Athens),37.95342,23.74897,,,
698,300,Greece,21117,Thessaloniki,40.64028,22.94389,,,
699,320,Guatemala,21124,Ciudad de Guatemala (Guatemala City),14.612652,-90.530746,,,
700,324,Guinea,21126,Conakry,9.571642,-13.647602,,,
701,324,Guinea,21130,Nzérékoré,7.75624,-8.8179,,,
702,624,Guinea-Bissau,22171,Bissau,11.86357,-15.59767,,,
703,332,Haiti,21133,Port-au-Prince,18.53917,-72.335,,,
704,340,Honduras,23503,Choloma,15.61444,-87.95302,,,
705,340,Honduras,21135,San Pedro Sula,15.5,-88.03333,,,
706,340,Honduras,21136,Tegucigalpa,14.0818,-87.20681,,,
707,348,Hungary,21138,Budapest,47.49801,19.03991,,,
708,356,India,21150,Agartala,23.83639,91.275,,,
709,356,India,21151,Agra,27.18333,78.01667,,,
710,356,India,21152,Ahmadabad,23.03333,72.61667,,,
711,356,India,21153,Ahmadnagar,19.08333,74.73333,,,
712,356,India,21154,Aizawl,23.72444,92.7175,,,
713,356,India,21155,Ajmer,26.45,74.63333,,,
714,356,India,21156,Akola,20.73333,77,,,
715,356,India,21158,Aligarh,27.88333,78.08333,,,
716,356,India,21160,Allahabad,25.45,81.85,,,
717,356,India,21161,Alwar,27.56246,76.625,,,
718,356,India,21163,Amravati,20.93333,77.75,,,
719,356,India,21164,Amritsar,31.630953,74.875536,,,
720,356,India,21166,Anand,22.56667,72.93333,,,
721,356,India,21167,Anantapur,14.68333,77.6,,,
722,356,India,21170,Asansol,23.68333,86.98333,,,
723,356,India,21171,Aurangabad,19.876619,75.34331,,,
724,356,India,21172,Baharampur,24.1,88.25,,,
725,356,India,21176,Bangalore,12.97194,77.59369,,,
726,356,India,21178,Barddhaman,23.24056,87.86944,,,
727,356,India,21179,Bareilly,28.35,79.41667,,,
728,356,India,21182,Bathinda,30.2,74.95,,,
729,356,India,204943,Begusarai,25.41666667,86.13333333,,,
730,356,India,21184,Belgaum,15.85212,74.50447,,,
731,356,India,21185,Bellary,15.15,76.93333,,,
732,356,India,21187,Bhagalpur,25.25,87,,,
733,356,India,21190,Bhavnagar,21.76667,72.15,,,
734,356,India,21191,Bhilwara,25.35,74.63333,,,
735,356,India,21193,Bhiwandi,19.3,73.06667,,,
736,356,India,21195,Bhopal,23.26667,77.4,,,
737,356,India,21196,Bhubaneswar,20.23333,85.83333,,,
738,356,India,21201,Bihar Sharif,25.18333,85.51667,,,
739,356,India,21202,Bijapur,16.82442,75.71537,,,
740,356,India,21203,Bikaner,28.01667,73.3,,,
741,356,India,21204,Bilaspur,22.078278,82.14574,,,
742,356,India,21205,Bokaro Steel City,23.78732,85.95622,,,
743,356,India,21207,Brahmapur,19.31667,84.78333,,,
744,356,India,21212,Chandigarh,30.7343,76.7933,,,
745,356,India,21213,Chandrapur,19.95,79.3,,,
746,356,India,21321,Chennai (Madras),13.053091,80.24875,,,
747,356,India,21215,Cherthala,9.683497,76.336654,,,
748,356,India,21219,Coimbatore,10.9925,76.96139,,,
749,356,India,21222,Cuttack,20.46497,85.87927,,,
750,356,India,21225,Darbhanga,26.16667,85.9,,,
751,356,India,21226,Davangere,14.460849,75.919871,,,
752,356,India,21227,Dehradun,30.31667,78.03333,,,
753,356,India,21228,Delhi,28.66667,77.21667,,,
754,356,India,21229,Dewas,22.96667,76.06667,,,
755,356,India,21230,Dhanbad,23.8,86.45,,,
756,356,India,21231,Dhule,20.9,74.78333,,,
757,356,India,21233,Dindigul,10.36896,77.98036,,,
759,356,India,21234,Durg-Bhilainagar,21.188706,81.280592,,,
758,356,India,21235,Durgapur,23.520444,87.311923,,,
760,356,India,21237,English Bazar,25,88.15,,,
761,356,India,21238,Erode,11.3428,77.72741,,,
762,356,India,21242,Farrukhabad,27.39048,79.58006,,,
763,356,India,21244,Firozabad,27.15,78.41667,,,
764,356,India,21249,Gaya,24.78333,85,,,
765,356,India,21253,Gorakhpur,26.759877,83.371379,,,
766,356,India,21255,Gulbarga,17.3333333,76.8333333,,,
767,356,India,21258,Guntur,16.3,80.45,,,
768,356,India,21261,Guwahati (Gauhati),26.173547,91.750291,,,
769,356,India,21262,Gwalior,26.22361,78.17917,,,
770,356,India,21263,Habra,22.83444,88.6275,,,
771,356,India,21267,Hardwar,29.96667,78.16667,,,
772,356,India,21271,Hisar,29.16667,75.71667,,,
773,356,India,206050,Hosur,12.716667,77.816667,,,
774,356,India,21274,Hubli-Dharwad,15.458722,75.010582,,,
775,356,India,21275,Hyderabad,17.37528,78.47444,,,
776,356,India,21276,Ichalakaranji,16.7,74.46667,,,
777,356,India,21277,Imphal,24.81667,93.95,,,
778,356,India,21278,Indore,22.71792,75.8333,,,
779,356,India,21279,Jabalpur,23.16697,79.95006,,,
780,356,India,21280,Jaipur,26.91667,75.81667,,,
781,356,India,21281,Jalandhar,31.3255556,75.5791667,,,
782,356,India,21282,Jalgaon,21.009222,75.564353,,,
783,356,India,21283,Jalna,19.83333,75.88333,,,
784,356,India,21285,Jammu,32.727805,74.856879,,,
785,356,India,21284,Jamnagar,22.46667,70.06667,,,
786,356,India,21286,Jamshedpur,22.8,86.18333,,,
787,356,India,21288,Jhansi,25.43333,78.58333,,,
788,356,India,21289,Jodhpur,26.239232,73.015787,,,
789,356,India,21291,Junagadh,21.51667,70.46667,,,
790,356,India,21221,Kadapa,14.470955,78.824135,,,
791,356,India,21292,Kakinada,16.93333,82.21667,,,
792,356,India,21295,Kannur,11.872888,75.371554,,,
793,356,India,21296,Kanpur,26.46667,80.35,,,
794,356,India,21298,Karimnagar,18.43333,79.15,,,
795,356,India,206046,Kayamkulam,9.166577,76.504332,,,
796,356,India,21305,Kochi (Cochin),9.930693,76.260069,,,
797,356,India,21307,Kolhapur,16.69563,74.23167,,,
798,356,India,21211,Kolkata (Calcutta),22.533455,88.356045,,,
799,356,India,21308,Kollam,8.88056,76.59167,,,
800,356,India,21309,Korba,22.35,82.68333,,,
801,356,India,21310,Kota,25.16645,75.856095,,,
802,356,India,21312,Kottayam,9.58333,76.51667,,,
803,356,India,21313,Kozhikode (Calicut),11.25669,75.778724,,,
804,356,India,21316,Kurnool,15.826681,78.035199,,,
805,356,India,21317,Latur,18.4,76.58333,,,
806,356,India,21318,Lucknow,26.85,80.91667,,,
807,356,India,21319,Ludhiana,30.9,75.85,,,
808,356,India,21322,Madurai,9.93333,78.11667,,,
809,356,India,21325,Malappuram,11.06667,76.06667,,,
810,356,India,21326,Malegaon,20.55,74.53333,,,
811,356,India,21328,Mangalore,12.91723,74.85603,,,
812,356,India,21329,Mathura,27.5,77.68333,,,
813,356,India,21330,Maunath Bhanjan,25.947485,83.558986,,,
814,356,India,21332,Meerut,28.97155,77.71934,,,
815,356,India,21336,Moradabad,28.83333,78.78333,,,
816,356,India,21206,Mumbai (Bombay),19.073975,72.880838,,,
817,356,India,21341,Muzaffarnagar,29.46667,77.68333,,,
818,356,India,21342,Muzaffarpur,26.11667,85.4,,,
819,356,India,21343,Mysore,12.29791,76.63925,,,
820,356,India,21347,Nagpur,21.15,79.1,,,
821,356,India,21348,Nanded Waghala,19.161775,77.313728,,,
822,356,India,21350,Nashik,19.98333,73.8,,,
823,356,India,21351,Navsari,20.948507,72.930834,,,
824,356,India,21352,Nellore,14.44625,79.9842,,,
825,356,India,21354,Nizamabad,18.67154,78.0988,,,
826,356,India,21357,Palakkad,10.7725,76.65139,,,
827,356,India,21359,Panipat,29.38889,76.96806,,,
828,356,India,21360,Parbhani,19.26667,76.78333,,,
829,356,India,21363,Patiala,30.32667,76.40028,,,
830,356,India,21364,Patna,25.6,85.11667,,,
831,356,India,21368,Puducherry,11.93,79.83,,,
832,356,India,21371,Pune (Poona),18.516057,73.861578,,,
833,356,India,21373,Purnia,25.78333,87.46667,,,
834,356,India,21376,Raipur,21.23333,81.63333,,,
835,356,India,21377,Rajahmundry,17.003789,81.789447,,,
836,356,India,21379,Rajkot,22.3,70.78333,,,
837,356,India,21382,Rampur,28.806232,79.027699,,,
838,356,India,21384,Ranchi,23.35,85.33333,,,
839,356,India,21168,Ranipet,12.93148,79.332312,,,
840,356,India,21387,Raurkela,22.224891,84.86175,,,
841,356,India,21389,Rohtak,28.9,76.5666667,,,
842,356,India,204983,Roorkee,29.8666666667,77.88333333,,,
843,356,India,21390,Sagar,23.840472,78.738458,,,
844,356,India,21391,Saharanpur,29.96667,77.55,,,
845,356,India,21392,Salem,11.65,78.16667,,,
846,356,India,204984,Sangali,16.85438,74.56417,,,
847,356,India,21396,Santipur,23.24722,88.43302,,,
848,356,India,21397,Satna,24.58333,80.83333,,,
849,356,India,21398,Shahjahanpur,27.88333,79.91667,,,
850,356,India,21399,Shillong,25.56892,91.88313,,,
851,356,India,21401,Shimoga,13.93157,75.56791,,,
852,356,India,21405,Siliguri,26.71611,88.42361,,,
853,356,India,21409,Solapur,17.68333,75.91667,,,
854,356,India,21411,Srinagar,34.083658,74.797363,,,
855,356,India,21412,Surat,21.16667,72.83333,,,
856,356,India,21414,Thanjavur,10.8,79.15,,,
857,356,India,21415,Thiruvananthapuram,8.50694,76.95694,,,
858,356,India,204988,Thoothukkudi (Tuticorin),8.809046,78.136911,,,
859,356,India,21416,Thrissur,10.51667,76.21667,,,
860,356,India,21417,Tiruchirappalli,10.805,78.68556,,,
861,356,India,21418,Tirunelveli,8.73333,77.7,,,
862,356,India,21419,Tirupati,13.65,79.41667,,,
863,356,India,21420,Tiruppur,11.11541,77.35456,,,
864,356,India,21423,Tumkur,13.34222,77.10167,,,
865,356,India,21425,Udaipur,24.566108,73.691075,,,
866,356,India,21427,Ujjain,23.18333,75.76667,,,
867,356,India,21430,Vadodara,22.3,73.2,,,
868,356,India,21433,Varanasi (Benares),25.316426,82.982198,,,
869,356,India,21434,Vellore,12.93333,79.13333,,,
870,356,India,21435,Vijayawada,16.51667,80.61667,,,
871,356,India,21436,Visakhapatnam,17.681874,83.209685,,,
872,356,India,21439,Warangal,18,79.58333,,,
873,356,India,21441,Yamunanagar,30.1,77.28333,,,
874,360,Indonesia,21443,Ambon,-3.69543,128.1814,,,
875,360,Indonesia,21444,Balikpapan,-1.26753,116.82887,,,
876,360,Indonesia,21446,Bandar Lampung,-5.4254,105.258,,,
877,360,Indonesia,21447,Bandung,-6.919393,107.608456,,,
878,360,Indonesia,21448,Banjarmasin,-3.32442,114.591,,,
879,360,Indonesia,205695,Batam,1.119078,104.031275,,,
880,360,Indonesia,21449,Bengkulu,-3.800278,102.265278,,,
881,360,Indonesia,21452,Bogor,-6.606481,106.801891,,,
882,360,Indonesia,21453,Cirebon,-6.7063,108.557,,,
883,360,Indonesia,205696,Denpasar,-8.65,115.21667,,,
884,360,Indonesia,21454,Jakarta,-6.211831,106.841646,,,
885,360,Indonesia,21455,Jambi,-1.6,103.61667,,,
886,360,Indonesia,21479,Makassar (Ujung Pandang),-5.144396,119.423639,,,
887,360,Indonesia,21459,Malang,-7.9797,112.6304,,,
888,360,Indonesia,21460,Manado,1.487,124.8455,,,
889,360,Indonesia,206494,Mataram,-8.58333,116.11667,,,
890,360,Indonesia,21461,Medan,3.58333,98.66667,,,
891,360,Indonesia,21462,Padang,-0.94924,100.35427,,,
892,360,Indonesia,21463,Palembang,-2.91673,104.7458,,,
893,360,Indonesia,21467,Pekan Baru,0.53333,101.45,,,
894,360,Indonesia,21469,Pontianak,-0.03333,109.33333,,,
895,360,Indonesia,21471,Samarinda,-0.5,117.15,,,
896,360,Indonesia,21472,Semarang,-6.9932,110.4203,,,
897,360,Indonesia,21473,Sukabumi,-6.91806,106.92667,,,
898,360,Indonesia,21474,Surabaya,-7.288838,112.741078,,,
899,360,Indonesia,21475,Surakarta,-7.55611,110.83167,,,
900,360,Indonesia,206493,Tasikmalaya,-7.327905,108.216618,,,
901,360,Indonesia,21480,Yogyakarta,-7.78278,110.36083,,,
902,364,Iran (Islamic Republic of),21482,Ahvaz,31.3203,48.6693,,,
903,364,Iran (Islamic Republic of),21484,Arak,34.09174,49.68916,,,
904,364,Iran (Islamic Republic of),21485,Ardabil,38.2498,48.2933,,,
905,364,Iran (Islamic Republic of),21488,Bandar Abbas,27.1865,56.2808,,,
906,364,Iran (Islamic Republic of),21493,Esfahan,32.65722,51.67761,,,
907,364,Iran (Islamic Republic of),21498,Eslamshahr,35.562618,51.235883,,,
908,364,Iran (Islamic Republic of),21495,Gorgan,36.84165,54.44361,,,
909,364,Iran (Islamic Republic of),21496,Hamadan,34.79922,48.51456,,,
910,364,Iran (Islamic Republic of),21499,Karaj,35.8355,51.0103,,,
911,364,Iran (Islamic Republic of),21501,Kerman,30.28321,57.07879,,,
912,364,Iran (Islamic Republic of),21502,Kermanshah,34.31417,47.065,,,
913,364,Iran (Islamic Republic of),21504,Khorramabad,33.48778,48.35583,,,
914,364,Iran (Islamic Republic of),205437,Malard,35.665833,50.976667,,,
915,364,Iran (Islamic Republic of),21508,Mashhad,36.297,59.6062,,,
916,364,Iran (Islamic Republic of),21511,Orumiyeh,37.55274,45.07605,,,
917,364,Iran (Islamic Republic of),21513,Qazvin,36.26877,50.0041,,,
918,364,Iran (Islamic Republic of),205443,Qods,35.713011,51.105508,,,
919,364,Iran (Islamic Republic of),21514,Qom,34.6401,50.8764,,,
920,364,Iran (Islamic Republic of),21515,Rasht,37.28077,49.58319,,,
921,364,Iran (Islamic Republic of),21518,Sanandaj,35.3144,46.9923,,,
922,364,Iran (Islamic Republic of),21519,Sari,36.56332,53.06009,,,
923,364,Iran (Islamic Republic of),21520,Shiraz,29.6036,52.5388,,,
924,364,Iran (Islamic Republic of),21522,Tabriz,38.08,46.2919,,,
925,364,Iran (Islamic Republic of),21523,Tehran,35.69439,51.42151,,,
926,364,Iran (Islamic Republic of),21524,Yazd,31.89722,54.3675,,,
927,364,Iran (Islamic Republic of),21525,Zahedan,29.4963,60.8629,,,
928,364,Iran (Islamic Republic of),21526,Zanjan,36.6736,48.4787,,,
929,368,Iraq,21530,Al-Basrah (Basra),30.49721,47.81491,,,
930,368,Iraq,21536,Al-Mawsil (Mosul),36.335,43.1188889,,,
931,368,Iraq,21527,Amara,31.834419,47.152446,,,
932,368,Iraq,23323,Baaqoobah,33.75,44.6411111,,,
933,368,Iraq,21529,Baghdad,33.34058,44.40088,,,
934,368,Iraq,21531,Diwaniyah,31.99051,44.93063,,,
935,368,Iraq,23324,Faloojah,33.35581,43.78612,,,
936,368,Iraq,21532,Hillah,32.4825,44.4313889,,,
937,368,Iraq,21528,Irbil (Erbil),36.19257,44.01062,,,
938,368,Iraq,21533,Karbala,32.5983333,44.0238889,,,
939,368,Iraq,21534,Kirkuk,35.4680556,44.3922222,,,
940,368,Iraq,21535,Kut,32.5,45.8333333,,,
941,368,Iraq,21537,Najaf,31.997314,44.331352,,,
942,368,Iraq,21538,Nasiriyah,31.0333333,46.2666667,,,
943,368,Iraq,21539,Ramadi,33.4166667,43.3,,,
944,368,Iraq,21540,Sulaimaniya,35.5616667,45.4408333,,,
945,372,Ireland,21542,Dublin,53.33306,-6.24889,,,
946,376,Israel,21545,Be'er Sheva,31.25181,34.7913,,,
947,376,Israel,21546,Hefa (Haifa),32.813261,34.991355,,,
948,376,Israel,21547,Jerusalem,31.76904,35.21633,,,
949,376,Israel,21549,Tel Aviv-Yafo (Tel Aviv-Jaffa),32.08088,34.78057,,,
950,380,Italy,21552,Bari,41.11773,16.85118,,,
951,380,Italy,205163,Barletta,41.31183,16.29077,,,
952,380,Italy,21553,Bergamo,45.69798,9.66895,,,
953,380,Italy,21554,Bologna,44.49381,11.33875,,,
954,380,Italy,21556,Brescia,45.52478,10.22727,,,
955,380,Italy,205160,Busto Arsizio,45.61128,8.84914,,,
956,380,Italy,21557,Cagliari,39.20738,9.13462,,,
957,380,Italy,205162,Caserta,41.08322,14.33493,,,
958,380,Italy,21558,Catania,37.50213,15.08719,,,
959,380,Italy,205161,Como,45.80998,9.08744,,,
960,380,Italy,21562,Florence,43.76667,11.25,,,
961,380,Italy,21565,Genova (Genoa),44.40632,8.93386,,,
962,380,Italy,21567,Latina,41.46614,12.9043,,,
963,380,Italy,21571,Milano (Milan),45.55307,9.18344,,,
964,380,Italy,21572,Modena,44.64783,10.92539,,,
965,380,Italy,21574,Napoli (Naples),40.850178,14.259213,,,
966,380,Italy,205165,Nola,40.92201,14.53294,,,
967,380,Italy,21576,Padova,45.41519,11.88181,,,
968,380,Italy,21577,Palermo,38.11582,13.35976,,,
969,380,Italy,21578,Parma,44.80266,10.32898,,,
970,380,Italy,21580,Pescara,42.46024,14.21021,,,
971,380,Italy,21586,Reggio Emilia,44.69825,10.63125,,,
972,380,Italy,21588,Roma (Rome),41.894743,12.481142,,,
973,380,Italy,21589,Salerno,40.67797,14.76599,,,
974,380,Italy,205188,Seregno,45.65238,9.20034,,,
975,380,Italy,21592,Taranto,40.4625,17.25972,,,
976,380,Italy,21597,Torino (Turin),45.068672,7.677218,,,
977,380,Italy,205164,Treviso,45.66667,12.245,,,
978,380,Italy,21599,Venezia,45.43565,12.339589,,,
979,380,Italy,21600,Verona,45.43419,10.99779,,,
980,380,Italy,21601,Vicenza,45.55729,11.5409,,,
981,388,Jamaica,21607,Kingston,17.99702,-76.79358,,,
983,392,Japan,204583,Chukyo M.M.A. (Nagoya),35.18147,136.90641,,,1964
987,392,Japan,206459,Kinki M.M.A. (Osaka),34.675834,135.553823,,,1964
998,392,Japan,206156,Shizuoka-Hamamatsu M.M.A.,34.9769,138.3831,,,1964
999,392,Japan,21671,Tokyo,35.6895,139.69171,,,1964
984,392,Japan,204585,Hiroshima,34.392823,132.460534,,,1975
988,392,Japan,204586,Kitakyushu-Fukuoka M.M.A.,33.6064,130.4181,,,1975
995,392,Japan,21656,Okayama,34.650668,133.913478,,,1975
993,392,Japan,21651,Niigata,37.913894,139.032723,,,1982
997,392,Japan,204582,Sendai,38.256047,140.897639,,,1982
1000,392,Japan,21675,Utsunomiya,36.56583,139.88361,,,1982
985,392,Japan,21626,Kagoshima,31.570982,130.548469,,,2011
989,392,Japan,21633,Kumamoto,32.78972,130.74167,,,2011
986,392,Japan,21627,Kanazawa,36.556368,136.642985,,,2015
982,392,Japan,21611,Asahikawa,43.76778,142.37028,,,
990,392,Japan,21640,Matsuyama,33.83239,132.75951,,,
991,392,Japan,21647,Nagasaki,32.750214,129.876176,,,
992,392,Japan,21649,Naha,26.21219,127.687286,,,
994,392,Japan,21655,Oita,33.236487,131.609909,,,
996,392,Japan,204581,Sapporo,43.06417,141.34694,,,
1001,400,Jordan,21700,Amman,31.95522,35.94503,,,
1002,400,Jordan,21702,Ar-Rusayfah,32.01555556,36.0427777778,,,
1003,400,Jordan,21701,Irbid,32.55556,35.85,,,
1004,400,Jordan,21704,Zarqa,32.068265,36.088935,,,
1005,398,Kazakhstan,21681,Aktyubinsk,50.285462,57.162773,,,
1006,398,Kazakhstan,21682,Almaty,43.247189,76.910127,,,
1007,398,Kazakhstan,21679,Astana,51.1801,71.44598,,,
1008,398,Kazakhstan,21687,Karaganda,49.801088,73.095428,,,
1009,398,Kazakhstan,21691,Pavlodar,52.3,76.95,,,
1010,398,Kazakhstan,21694,Semipalatinsk,50.42675,80.26669,,,
1011,398,Kazakhstan,21695,Shimkent,42.3,69.6,,,
1012,398,Kazakhstan,21684,Taraz,42.9,71.36667,,,
1013,398,Kazakhstan,21699,Ust-Kamenogorsk,49.96466,82.60898,,,
1014,404,Kenya,21705,Eldoret,0.52036,35.26992,,,
1015,404,Kenya,21708,Mombasa,-4.05466,39.66359,,,
1016,404,Kenya,21711,Nairobi,-1.28333,36.81667,,,
1017,404,Kenya,21712,Nakuru,-0.28333,36.06667,,,
1018,414,Kuwait,21769,Al Kuwayt (Kuwait City),29.353429,47.982244,,,
1019,417,Kyrgyzstan,21770,Bishkek,42.87,74.59,,,
1020,418,Lao People's Democratic Republic,21772,Vientiane,17.96667,102.6,,,
1021,428,Latvia,21778,Riga,56.946,24.10589,,,
1022,422,Lebanon,21773,Bayrut (Beirut),33.9,35.48333,,,
1023,430,Liberia,21779,Monrovia,6.30054,-10.7969,,,
1024,434,Libya,21780,Banghazi,32.11667,20.06667,,,
1025,434,Libya,21781,Misratah,32.37535,15.09254,,,
1026,434,Libya,21782,Tarabulus (Tripoli),32.87519,13.18746,,,
1027,440,Lithuania,21789,Vilnius,54.68916,25.2798,,,
1028,450,Madagascar,21792,Antananarivo,-18.91368,47.53613,,,
1029,450,Madagascar,21796,Toamasina,-18.16667,49.38333,,,
1030,454,Malawi,21798,Blantyre-Limbe,-15.78499,35.00854,,,
1031,454,Malawi,21799,Lilongwe,-13.96692,33.78725,,,
1032,458,Malaysia,21803,Ipoh,4.583333,101.0833,,,
1033,458,Malaysia,21804,Johor Bahru,1.4655,103.7578,,,
1034,458,Malaysia,21806,Kota Bharu,6.133333,102.25,,,
1035,458,Malaysia,21807,Kota Kinabalu,5.978172,116.116577,,,
1036,458,Malaysia,206411,Kuala Lumpur,3.1412,101.68653,,,
1037,458,Malaysia,21809,Kuala Terengganu,5.3302,103.1408,,,
1038,458,Malaysia,21810,Kuantan,3.8077,103.326,,,
1039,458,Malaysia,206412,Kuching,1.55,110.33333,,,
1040,458,Malaysia,206413,Sandakan,5.8402,118.1179,,,
1041,458,Malaysia,21813,Seremban,2.7297,101.9381,,,
1042,466,Mali,21818,Bamako,12.65,-8,,,
1043,478,Mauritania,21821,Nouakchott,18.08581,-15.9785,,,
1044,484,Mexico,21823,Acapulco de Juárez,16.86336,-99.8901,,,
1045,484,Mexico,21824,Aguascalientes,21.88333,-102.3,,,
1046,484,Mexico,21826,Cancún,21.17429,-86.84656,,,
1047,484,Mexico,21827,Celaya,20.51667,-100.81667,,,
1048,484,Mexico,21828,Chihuahua,28.63333,-106.08333,,,
1049,484,Mexico,21853,Ciudad de México (Mexico City),19.427318,-99.141869,,,
1050,484,Mexico,21830,Ciudad Juárez,31.73333,-106.48333,,,
1051,484,Mexico,21831,Ciudad Obregón,27.48333,-109.93333,,,
1052,484,Mexico,21832,Ciudad Victoria,23.73333,-99.13333,,,
1053,484,Mexico,21833,Coatzacoalcos,18.15,-94.41667,,,
1054,484,Mexico,21834,Colima,19.23333,-103.71667,,,
1055,484,Mexico,21835,Córdoba,18.88333,-96.93333,,,
1056,484,Mexico,21836,Cuautla Morelos,18.8,-98.95,,,
1057,484,Mexico,21837,Cuernavaca,18.91667,-99.25,,,
1058,484,Mexico,21838,Culiacán,24.79944,-107.38972,,,
1059,484,Mexico,21839,Durango,24.03333,-104.66667,,,
1060,484,Mexico,21841,Guadalajara,20.66667,-103.33333,,,
1061,484,Mexico,21844,Hermosillo,29.084507,-110.967187,,,
1062,484,Mexico,21845,Irapuato,20.6784,-101.3465,,,
1063,484,Mexico,21847,León de los Aldamas,21.123373,-101.680486,,,
1064,484,Mexico,21849,Matamoros,25.53333,-103.25,,,
1065,484,Mexico,21850,Mazatlán,23.240665,-106.414306,,,
1066,484,Mexico,21851,Mérida,20.96667,-89.61667,,,
1067,484,Mexico,21852,Mexicali,32.65194,-115.46833,,,
1068,484,Mexico,206420,Minatitlán,18.0013,-94.5581,,,
1069,484,Mexico,21854,Monclova,26.9,-101.41667,,,
1070,484,Mexico,21855,Monterrey,25.66667,-100.31667,,,
1071,484,Mexico,21856,Morelia,19.70078,-101.18443,,,
1072,484,Mexico,21857,Nuevo Laredo,27.47629,-99.51639,,,
1073,484,Mexico,21858,Oaxaca de Juárez,17.05,-96.71667,,,
1074,484,Mexico,21859,Orizaba,18.85,-97.1,,,
1075,484,Mexico,21860,Pachuca de Soto,20.11697,-98.73329,,,
1076,484,Mexico,21861,Poza Rica de Hidalgo,20.53315,-97.45946,,,
1077,484,Mexico,21862,Puebla,19.041532,-98.204962,,,
1078,484,Mexico,205566,Puerto Vallarta,20.62041,-105.23066,,,
1079,484,Mexico,21863,Querétaro,20.6,-100.38333,,,
1080,484,Mexico,21864,Reynosa,26.08333,-98.28333,,,
1081,484,Mexico,21865,Saltillo,25.41667,-101,,,
1082,484,Mexico,21866,San Luis Potosí,22.15,-100.98333,,,
1083,484,Mexico,21867,Tampico,22.21667,-97.85,,,
1084,484,Mexico,21869,Tehuacán,18.45,-97.38333,,,
1085,484,Mexico,21870,Tepic,21.5,-104.9,,,
1086,484,Mexico,21871,Tijuana,32.53333,-117.01667,,,
1087,484,Mexico,205567,Tlaxcala,19.31389,-98.24167,,,
1088,484,Mexico,21872,Toluca de Lerdo,19.283896,-99.657254,,,
1089,484,Mexico,21873,Torreón,25.539231,-103.461434,,,
1090,484,Mexico,21874,Tuxtla Gutierrez,16.75,-93.11667,,,
1091,484,Mexico,21876,Veracruz,19.2,-96.13333,,,
1092,484,Mexico,21877,Villahermosa,17.98333,-92.91667,,,
1093,484,Mexico,21878,Xalapa,19.537714,-96.913656,,,
1094,484,Mexico,21879,Zacatecas,22.77559,-102.57218,,,
1095,496,Mongolia,21882,Ulaanbaatar,47.90771,106.88324,,,
1096,504,Morocco,21888,Agadir,30.424847,-9.593695,,,
1097,504,Morocco,21891,Dar-el-Beida (Casablanca),33.59278,-7.61916,,,
1098,504,Morocco,21893,Fès,34.03715,-4.9998,,,
1099,504,Morocco,21894,Kénitra,34.26101,-6.5802,,,
1100,504,Morocco,21896,Marrakech,31.63148,-8.00828,,,
1101,504,Morocco,21897,Meknès,33.89352,-5.54727,,,
1102,504,Morocco,21898,Oujda,34.68052,-1.90764,,,
1103,504,Morocco,21899,Rabat,34.01325,-6.83255,,,
1104,504,Morocco,21900,Safi,32.29939,-9.23718,,,
1105,504,Morocco,21903,Tanger,35.784722,-5.812778,,,
1106,504,Morocco,21905,Tétouan,35.57109,-5.37242,,,
1107,508,Mozambique,21906,Beira,-19.84361,34.83889,,,
1108,508,Mozambique,21910,Maputo,-25.96528,32.58917,,,
1109,508,Mozambique,21911,Matola,-25.96222,32.45889,,,
1110,508,Mozambique,21914,Nampula,-15.11646,39.2666,,,
1111,104,Myanmar,20336,Bago,17.33667,96.47972,,,
1112,104,Myanmar,20333,Mandalay,21.97473,96.08359,,,
1113,104,Myanmar,20335,Mawlamyine,16.49051,97.62825,,,
1114,104,Myanmar,20334,Monywa,22.11667,95.13333,,,
1115,104,Myanmar,205588,Nay Pyi Taw,19.745,96.12972,,,
1116,104,Myanmar,20339,Yangon,16.80528,96.15611,,,
1117,516,Namibia,21925,Windhoek,-22.55941,17.08323,,,
1118,524,Nepal,21928,Kathmandu,27.70169,85.3206,,,
1119,524,Nepal,23352,Pokhara,28.233333,83.983333,,,
1120,528,Netherlands,21930,Amsterdam,52.37403,4.88969,,,
1121,528,Netherlands,21935,Eindhoven,51.44083,5.47778,,,
1122,528,Netherlands,21945,Rotterdam,51.9225,4.47917,,,
1123,528,Netherlands,205146,s-Gravenhage (The Hague),52.0767,4.2986,,,
1124,528,Netherlands,21949,Utrecht,52.09083,5.12222,,,
1125,554,New Zealand,21957,Auckland,-36.86667,174.76667,,,
1126,554,New Zealand,21958,Christchurch,-43.53333,172.63333,,,
1127,554,New Zealand,21962,Wellington,-41.28664,174.77557,,,
1128,558,Nicaragua,21967,Managua,12.13282,-86.2504,,,
1129,562,Niger,21972,Niamey,13.51366,2.1098,,,
1130,562,Niger,21973,Zinder,13.80716,8.9881,,,
1131,566,Nigeria,21974,Aba,5.10658,7.36667,,,
1132,566,Nigeria,206382,Abakaliki,6.31625,8.11691,,,
1133,566,Nigeria,21975,Abeokuta,7.15,3.35,,,
1134,566,Nigeria,21976,Abuja,9.05735,7.48976,,,
1135,566,Nigeria,21977,Ado-Ekiti,7.621,5.2215,,,
1136,566,Nigeria,21978,Akure,7.25256,5.19312,,,
1137,566,Nigeria,21980,Bauchi,10.31344,9.84327,,,
1138,566,Nigeria,21981,Benin City,6.33504,5.62749,,,
1139,566,Nigeria,21982,Calabar,4.9517,8.322,,,
1140,566,Nigeria,21985,Effon Alaiye,7.65,4.91667,,,
1141,566,Nigeria,21986,Enugu,6.4402,7.4943,,,
1142,566,Nigeria,21987,Gboko,7.326835,9.003405,,,
1143,566,Nigeria,21988,Gombe,10.28969,11.16729,,,
1144,566,Nigeria,21990,Ibadan,7.38778,3.89639,,,
1145,566,Nigeria,21991,Ife,7.477328,4.558853,,,
1146,566,Nigeria,206381,Igbidu,6.068322,8.116942,,,
1147,566,Nigeria,23537,Ikorodu,6.608716,3.510823,,,
1148,566,Nigeria,21998,Ilorin,8.5,4.55,,,
1149,566,Nigeria,22003,Jos,9.91667,8.9,,,
1150,566,Nigeria,22004,Kaduna,10.52224,7.43828,,,
1151,566,Nigeria,22005,Kano,12.00012,8.51672,,,
1152,566,Nigeria,22006,Katsina,12.98943,7.60063,,,
1153,566,Nigeria,22007,Lagos,6.45306,3.39583,,,
1154,566,Nigeria,206383,Lokoja,7.80236,6.743,,,
1155,566,Nigeria,22008,Maiduguri,11.84644,13.16027,,,
1156,566,Nigeria,23539,Makurdi,7.7411,8.5121,,,
1157,566,Nigeria,23540,Minna,9.61389,6.55694,,,
1158,566,Nigeria,23542,Nnewi,6.01986,6.91478,,,
1159,566,Nigeria,22009,Ogbomosho,8.132406,4.243307,,,
1160,566,Nigeria,22010,Okene,7.550727,6.233654,,,
1161,566,Nigeria,22011,Okpogho,6.440393,7.284425,,,
1162,566,Nigeria,22012,Ondo,7.1,4.83333,,,
1163,566,Nigeria,22013,Onitsha,6.14543,6.78845,,,
1164,566,Nigeria,22014,Oshogbo,7.76667,4.56667,,,
1165,566,Nigeria,22015,Owerri,5.48333,7.03041,,,
1166,566,Nigeria,22017,Oyo,7.85,3.93333,,,
1167,566,Nigeria,22018,Port Harcourt,4.77742,7.0134,,,
1168,566,Nigeria,22021,Sokoto,13.06092,5.23902,,,
1169,566,Nigeria,22022,Umuahia,5.52627,7.48959,,,
1170,566,Nigeria,206379,Uyo,5.05127,7.9335,,,
1171,566,Nigeria,22023,Warri,5.51667,5.75,,,
1172,566,Nigeria,22024,Zaria,11.11128,7.7227,,,
1173,578,Norway,22028,Oslo,59.91273,10.74609,,,
1174,512,Oman,21922,Masqat (Muscat),23.61387,58.5922,,,
1175,586,Pakistan,22035,Bahawalpur,29.4,71.68333,,,
1176,586,Pakistan,22037,Dera Ghazikhan,30.05,70.6333333,,,
1177,586,Pakistan,22038,Faisalabad,31.4166667,73.0833333,,,
1178,586,Pakistan,22039,Gujranwala,32.15,74.1833333,,,
1179,586,Pakistan,22040,Gujrat,32.5666667,74.0833333,,,
1180,586,Pakistan,22041,Hyderabad,25.3666667,68.3666667,,,
1181,586,Pakistan,22042,Islamabad,33.70351,73.059373,,,
1182,586,Pakistan,22043,Jhang,31.267026,72.312594,,,
1183,586,Pakistan,22044,Karachi,24.9056,67.0822,,,
1184,586,Pakistan,22045,Kasur,31.115,74.4547222,,,
1185,586,Pakistan,22046,Lahore,31.5497222,74.3436111,,,
1186,586,Pakistan,204847,Larkana,27.55,68.2166667,,,
1187,586,Pakistan,22047,Mardan,34.20195,72.05254,,,
1188,586,Pakistan,22048,Multan,30.1833333,71.4833333,,,
1189,586,Pakistan,22049,Nawabshah,26.25,68.4166667,,,
1190,586,Pakistan,22050,Okara,30.8080556,73.4458333,,,
1191,586,Pakistan,22051,Peshawar,34.00195,71.55944,,,
1192,586,Pakistan,22052,Quetta,30.199,67.00971,,,
1193,586,Pakistan,22053,Rahim Yar Khan,28.415126,70.299678,,,
1194,586,Pakistan,22054,Rawalpindi,33.6,73.0666667,,,
1195,586,Pakistan,22056,Sargodha,32.0833333,72.6666667,,,
1196,586,Pakistan,22057,Sheikhupura,31.7130556,73.9783333,,,
1197,586,Pakistan,22058,Sialkot,32.5,74.5166667,,,
1198,586,Pakistan,22059,Sukkur,27.7,68.8666667,,,
1199,586,Pakistan,22060,Wah,33.764072,72.745029,,,
1200,591,Panama,22063,Ciudad de Panamá (Panama City),8.995816,-79.519572,,,
1201,598,Papua New Guinea,22064,Port Moresby,-9.44314,147.17972,,,
1202,600,Paraguay,22065,Asunción,-25.30066,-57.63591,,,
1203,600,Paraguay,22066,Ciudad del Este,-25.51667,-54.61667,,,
1204,604,Peru,22067,Arequipa,-16.39889,-71.535,,,
1205,604,Peru,22069,Chiclayo,-6.77361,-79.84167,,,
1206,604,Peru,22070,Chimbote,-9.08528,-78.57833,,,
1207,604,Peru,22072,Cusco,-13.51833,-71.97806,,,
1208,604,Peru,22073,Huancayo,-12.06667,-75.23333,,,
1209,604,Peru,22076,Iquitos,-3.737172,-73.25275,,,
1210,604,Peru,22078,Lima,-12.04318,-77.02824,,,
1211,604,Peru,22079,Piura,-5.2,-80.63333,,,
1212,604,Peru,22083,Trujillo,-8.11599,-79.02998,,,
1213,608,Philippines,22084,Angeles City,15.15,120.58333,,,
1214,608,Philippines,22085,Bacolod,10.650723,122.945983,,,
1215,608,Philippines,22087,Baguio City,16.410801,120.590156,,,
1216,608,Philippines,22088,Basilan City (including City of Isabela),6.70407,121.97117,,,
1217,608,Philippines,22089,Batangas City,13.75729,121.058643,,,
1218,608,Philippines,22090,Butuan,8.94917,125.54361,,,
1219,608,Philippines,22093,Cagayan de Oro City,8.48222,124.64722,,,
1220,608,Philippines,22096,Cebu City,10.31672,123.89071,,,
1221,608,Philippines,22097,Cotabato,7.22361,124.24639,,,
1222,608,Philippines,22099,Davao City,7.073854,125.612487,,,
1223,608,Philippines,22100,General Santos City,6.11278,125.17167,,,
1224,608,Philippines,22101,Iligan,8.227401,124.242586,,,
1225,608,Philippines,22102,Iloilo City,10.696639,122.562855,,,
1226,608,Philippines,22103,Lapu-Lapu City,10.31028,123.94944,,,
1227,608,Philippines,22105,Lipa City,13.941883,121.162665,,,
1228,608,Philippines,22107,Mandaue City,10.32361,123.92222,,,
1229,608,Philippines,22109,Manila,14.6042,120.9822,,,
1230,608,Philippines,22125,Zamboanga City,6.910333,122.075045,,,
1231,616,Poland,22129,Bydgoszcz,53.1235,18.00762,,,
1232,616,Poland,22136,Gdańsk,54.35205,18.64637,,,
1233,616,Poland,22142,Katowice,50.25842,19.02754,,,
1234,616,Poland,22132,Kraków (Cracow),50.066777,19.942468,,,
1235,616,Poland,22145,Łódź,51.759433,19.459957,,,
1236,616,Poland,22146,Lublin,51.25,22.56667,,,
1237,616,Poland,22150,Poznań,52.40692,16.92993,,,
1238,616,Poland,22156,Szczecin,53.42894,14.55302,,,
1239,616,Poland,22161,Warszawa (Warsaw),52.22977,21.01178,,,
1240,616,Poland,22164,Wrocław,51.1,17.03333,,,
1241,620,Portugal,22167,Lisboa (Lisbon),38.71686,-9.139867,,,
1242,620,Portugal,22168,Porto,41.14961,-8.61099,,,
1243,630,Puerto Rico,23513,Aguadilla-Isabela-San Sebastian,18.427701,-67.154397,,,
1244,630,Puerto Rico,22177,San Juan,18.46633,-66.10572,,,
1245,634,Qatar,22179,Ad-Dawhah (Doha),25.274724,51.524472,,,
1246,634,Qatar,23567,Ar-Rayyan,25.29194,51.42444,,,
1250,410,Republic of Korea,21757,Busan,35.10278,129.04028,,,
1251,410,Republic of Korea,21729,Changwon,35.22806,128.68111,,,
1252,410,Republic of Korea,21730,Cheonan,36.813188,127.140955,,,
1253,410,Republic of Korea,21731,Cheongju,36.63722,127.48972,,,
1254,410,Republic of Korea,21763,Daegu,35.87028,128.59111,,,
1255,410,Republic of Korea,21764,Daejon,36.32139,127.41972,,,
1256,410,Republic of Korea,21745,Gimhae,35.23417,128.88111,,,
1258,410,Republic of Korea,21746,Gumi,36.119127,128.345482,,,
1259,410,Republic of Korea,21750,Gwangju,35.146111,126.918611,,,
1262,410,Republic of Korea,21735,Jeju,33.50972,126.52194,,,
1263,410,Republic of Korea,21738,Jeonju,35.82194,127.14889,,,
1264,410,Republic of Korea,21755,Pohang,36.017205,129.360216,,,
1266,410,Republic of Korea,21758,Seoul,37.56826,126.97783,,,
1270,410,Republic of Korea,21766,Ulsan,35.53722,129.31667,,,
1272,498,Republic of Moldova,21885,Chişinău,47.00556,28.8575,,,
1273,642,Romania,22191,Bucuresti (Bucharest),44.432787,26.104302,,,
1274,642,Romania,22194,Cluj-Napoca,46.76667,23.6,,,
1275,642,Romania,22214,Timisoara,45.74944,21.22722,,,
1276,643,Russian Federation,22225,Arkhangelsk,64.56,40.5333333,,,
1277,643,Russian Federation,22228,Astrakhan,46.34968,48.04076,,,
1278,643,Russian Federation,22232,Barnaul,53.36056,83.76361,,,
1279,643,Russian Federation,22233,Belgorod,50.61074,36.58015,,,
1280,643,Russian Federation,22239,Bryansk,53.25209,34.37167,,,
1281,643,Russian Federation,22240,Cheboksary,56.13222,47.25194,,,
1282,643,Russian Federation,22241,Chelyabinsk,55.15444,61.42972,,,
1283,643,Russian Federation,22243,Cherepovets,59.13333,37.9,,,
1284,643,Russian Federation,22245,Chita,52.03171,113.50087,,,
1285,643,Russian Federation,22256,Irkutsk,52.29778,104.29639,,,
1286,643,Russian Federation,22257,Ivanovo,56.99719,40.97139,,,
1287,643,Russian Federation,22258,Izhevsk,56.84976,53.20448,,,
1288,643,Russian Federation,22260,Kaliningrad,54.714258,20.510017,,,
1289,643,Russian Federation,22262,Kaluga,54.5293,36.27542,,,
1290,643,Russian Federation,22266,Kazan,55.78874,49.12214,,,
1291,643,Russian Federation,22267,Kemerovo,55.33333,86.08333,,,
1292,643,Russian Federation,22268,Khabarovsk,48.48272,135.08379,,,
1293,643,Russian Federation,22385,Kirov,58.603068,49.668173,,,
1294,643,Russian Federation,22282,Krasnodar,45.0488,38.9725,,,
1295,643,Russian Federation,22283,Krasnoyarsk,56.00972,92.79167,,,
1296,643,Russian Federation,22285,Kurgan,55.45,65.33333,,,
1297,643,Russian Federation,22286,Kursk,51.73733,36.18735,,,
1298,643,Russian Federation,22288,Lipetsk,52.60311,39.57076,,,
1299,643,Russian Federation,22293,Magnitogorsk,53.41861,59.04722,,,
1300,643,Russian Federation,22294,Makhachkala,42.97638,47.50236,,,
1301,643,Russian Federation,22299,Moskva (Moscow),55.754996,37.621849,,,
1302,643,Russian Federation,22303,Naberezhnye Tchelny,55.72545,52.41122,,,
1303,643,Russian Federation,22310,Nizhniy Novgorod,56.32867,44.00205,,,
1304,643,Russian Federation,22311,Nizhny Tagil,57.91944,59.965,,,
1305,643,Russian Federation,22318,Novokuznetsk,53.7557,87.1099,,,
1306,643,Russian Federation,22322,Novosibirsk,55.0415,82.9346,,,
1307,643,Russian Federation,22327,Omsk,55,73.4,,,
1308,643,Russian Federation,22330,Orel,52.96508,36.0785,,,
1309,643,Russian Federation,22331,Orenburg,51.7727,55.0988,,,
1310,643,Russian Federation,22335,Penza,53.20066,45.00464,,,
1311,643,Russian Federation,22336,Perm,58.01741,56.28552,,,
1312,643,Russian Federation,22345,Rostov-na-Donu (Rostov-on-Don),47.217791,39.703185,,,
1313,643,Russian Federation,22348,Ryazan,54.6269,39.6916,,,
1314,643,Russian Federation,22351,Samara,53.20006,50.15,,,
1315,643,Russian Federation,22365,Sankt Peterburg (Saint Petersburg),59.929858,30.326228,,,
1316,643,Russian Federation,22354,Saratov,51.54056,46.00861,,,
1317,643,Russian Federation,22362,Smolensk,54.7818,32.0401,,,
1318,643,Russian Federation,22363,Sochi,43.59917,39.72569,,,
1319,643,Russian Federation,22367,Stavropol,45.0428,41.9734,,,
1320,643,Russian Federation,22369,Surgut,61.258749,73.424407,,,
1321,643,Russian Federation,22374,Tolyatti,53.5303,49.3461,,,
1322,643,Russian Federation,22375,Tomsk,56.49417,84.97417,,,
1323,643,Russian Federation,22376,Tula,54.20213,37.64429,,,
1324,643,Russian Federation,22259,Tver,56.86049,35.87603,,,
1325,643,Russian Federation,22377,Tyumen,57.15222,65.52722,,,
1326,643,Russian Federation,22378,Ufa,54.78517,56.04562,,,
1327,643,Russian Federation,22380,Ulan-Ude,51.82605,107.60979,,,
1328,643,Russian Federation,22360,Ulyanovsk,54.32824,48.38657,,,
1329,643,Russian Federation,22328,Vladikavkaz,43.03667,44.66778,,,
1330,643,Russian Federation,22386,Vladimir,56.13655,40.39658,,,
1331,643,Russian Federation,22387,Vladivostok,43.10562,131.87353,,,
1332,643,Russian Federation,22389,Volgograd,48.71939,44.50184,,,
1333,643,Russian Federation,22390,Vologda,59.2187,39.8886,,,
1334,643,Russian Federation,22391,Volzhsky,48.78583,44.77973,,,
1335,643,Russian Federation,22393,Voronezh,51.67204,39.1843,,,
1336,643,Russian Federation,22395,Yakutsk,62.03389,129.73306,,,
1337,643,Russian Federation,22396,Yaroslavl,57.62987,39.87368,,,
1338,643,Russian Federation,22248,Yekaterinburg,56.8575,60.6125,,,
1339,646,Rwanda,22404,Kigali,-1.947364,30.057897,,,
1340,682,Saudi Arabia,22416,Ad-Dammam,26.43442,50.10326,,,
1341,682,Saudi Arabia,22427,Al-Madinah (Medina),24.463501,39.611106,,,
1342,682,Saudi Arabia,22432,Ar-Riyadh (Riyadh),24.690466,46.709566,,,
1343,682,Saudi Arabia,22415,Buraydah,26.32599,43.97497,,,
1345,682,Saudi Arabia,22418,Ha'il,27.52188,41.69073,,,
1344,682,Saudi Arabia,22417,Hafar al-Batin,28.425078,45.96883,,,
1346,682,Saudi Arabia,22420,Hufuf-Mubarraz,25.41,49.58083,,,
1347,682,Saudi Arabia,22421,Jiddah,21.51694,39.21917,,,
1348,682,Saudi Arabia,22422,Jubayl,27.01122,49.65826,,,
1349,682,Saudi Arabia,22423,Khamis Mushayt,18.30639,42.72917,,,
1350,682,Saudi Arabia,22426,Makkah (Mecca),21.417368,39.815855,,,
1351,682,Saudi Arabia,22429,Najran,17.4924,44.12766,,,
1352,682,Saudi Arabia,22433,Tabuk,28.38333,36.58333,,,
1353,682,Saudi Arabia,22434,Taif,21.27028,40.41583,,,
1354,686,Senegal,22439,Dakar,14.6937,-17.44406,,,
1355,688,Serbia,23241,Beograd (Belgrade),44.817649,20.463309,,,
1356,694,Sierra Leone,22445,Freetown,8.484,-13.22994,,,
1357,702,Singapore,22447,Singapore,1.28967,103.85007,,,
1358,703,Slovakia,22448,Bratislava,48.14816,17.10674,,,
1359,706,Somalia,204111,Berbera,10.43959,45.01432,,,
1360,706,Somalia,204112,Hargeysa,9.56,44.065,,,
1361,706,Somalia,204113,Kismaayo,-0.366667,42.533333,,,
1362,706,Somalia,22476,Merca,1.71594,44.77166,,,
1363,706,Somalia,22477,Muqdisho (Mogadishu),2.041636,45.343492,,,
1364,710,South Africa,22479,Bloemfontein,-29.12106,26.214,,,
1365,710,South Africa,22481,Cape Town,-33.92584,18.42322,,,
1366,710,South Africa,22482,Durban,-29.8579,31.0292,,,
1367,710,South Africa,22483,East London,-33.01529,27.91162,,,
1368,710,South Africa,22486,Johannesburg,-26.20227,28.04363,,,
1369,710,South Africa,22497,Pietermaritzburg,-29.61678,30.39278,,,
1370,710,South Africa,22499,Port Elizabeth,-33.91799,25.57007,,,
1371,710,South Africa,22501,Pretoria,-25.74486,28.18783,,,
1372,710,South Africa,22503,Rustenburg,-25.66756,27.24208,,,
1373,710,South Africa,23941,Soshanguve,-25.47288,28.09919,,,
1374,710,South Africa,22505,Vereeniging,-26.67313,27.92615,,,
1375,710,South Africa,22508,Witbank,-25.87133,29.23323,,,
1376,728,South Sudan,22577,Juba,4.85165,31.58247,,,
1377,724,Spain,22520,Alicante,38.34517,-0.48149,,,
1378,724,Spain,22525,Barcelona,41.38879,2.15899,,,
1379,724,Spain,22526,Bilbao,43.26271,-2.92528,,,
1380,724,Spain,22531,Cordoba,37.88333,-4.76667,,,
1381,724,Spain,22543,Las Palmas Gran Canaria,28.110696,-15.434283,100,,
1382,724,Spain,22549,Madrid,40.4165,-3.70256,,,
1383,724,Spain,22550,Malaga,36.72016,-4.42034,,,
1384,724,Spain,22553,Murcia,37.98704,-1.13004,,,
1385,724,Spain,22556,Palma,39.56939,2.65024,,,
1386,724,Spain,22562,Sevilla,37.38241,-5.97613,,,
1387,724,Spain,22567,Valencia,39.46975,-0.37739,,,
1388,724,Spain,22568,Valladolid,41.65518,-4.72372,,,
1389,724,Spain,205149,Zaragoza,41.65606,-0.87734,,,
1390,144,Sri Lanka,20414,Colombo,6.93194,79.84778,,,
1391,275,State of Palestine,203953,Gaza (incl. Ash Shati Camp),31.510618,34.458756,,,
1392,729,Sudan,22573,Al Gadarif,14.03493,35.38344,,,
1393,729,Sudan,22575,Al Obeid (Al Ubayyid),13.18416667,30.2166666667,,,
1394,729,Sudan,22579,Al-Khartum (Khartoum),15.55177,32.53241,,,
1395,729,Sudan,22578,Kassala,15.45099,36.39998,,,
1396,729,Sudan,22582,Nyala,12.05,24.88333,,,
1397,729,Sudan,22583,Port Sudan (Bur Sudan),19.619521,37.21238,,,
1398,729,Sudan,22585,Wad Medani,14.40118,33.51989,,,
1399,752,Sweden,22590,Göteborg,57.703161,11.966273,,,
1400,752,Sweden,22597,Stockholm,59.33258,18.0649,,,
1401,756,Switzerland,22600,Basel,47.5584,7.57327,,,
1402,756,Switzerland,22601,Bern,46.94809,7.44744,,,
1403,756,Switzerland,22602,Genève,46.20222,6.14569,,,
1404,756,Switzerland,22603,Lausanne,46.516,6.63282,,,
1405,756,Switzerland,22606,Zürich (Zurich),47.35785,8.50296,,,
1406,760,Syrian Arab Republic,23570,Al-Hasakah,36.50237,40.74772,,,
1407,760,Syrian Arab Republic,22609,Al-Kamishli,37.05215,41.23142,,,
1408,760,Syrian Arab Republic,22607,Al-Raqqa,35.95,39.01667,,,
1409,760,Syrian Arab Republic,22611,Deir El-Zor(Deir ez-Zor),35.332233,40.150155,,,
1410,760,Syrian Arab Republic,22610,Dimashq (Damascus),33.508586,36.308444,,,
1411,760,Syrian Arab Republic,22608,Halab (Aleppo),36.213611,37.157141,,,
1412,760,Syrian Arab Republic,22612,Hamah,35.13179,36.75783,,,
1413,760,Syrian Arab Republic,22613,Hims (Homs),34.731809,36.718125,,,
1414,760,Syrian Arab Republic,22614,Lattakia,35.51484,35.77684,,,
1415,760,Syrian Arab Republic,206425,Tartus,34.893201,35.88844,,,
1416,762,Tajikistan,22615,Dushanbe,38.53575,68.77905,,,
1417,807,TFYR Macedonia,22802,Skopje,42,21.43333,,,
1418,764,Thailand,22619,Chon Buri,13.361125,100.988319,,,
1419,764,Thailand,205972,Hat Yai,7.0083,100.4767,,,
1420,764,Thailand,22617,Krung Thep (Bangkok),13.721964,100.525248,,,
1421,764,Thailand,204121,Lampang,18.29232,99.49277,,,
1422,764,Thailand,22621,Nakhon Ratchasima,14.97066,102.10196,,,
1423,764,Thailand,22624,Nonthaburi,13.860208,100.521782,,,
1424,764,Thailand,204120,Rayong,12.68095,101.25798,,,
1425,764,Thailand,204118,Samut Prakan,13.59934,100.59675,,,
1426,764,Thailand,204119,Udon Thani,17.41567,102.78589,,,
1427,768,Togo,22628,Lomé,6.13748,1.21227,,,
1428,788,Tunisia,22644,Safaqis,34.748471,10.756162,,,
1429,788,Tunisia,22646,Tunis,36.81897,10.16579,,,
1430,792,Turkey,22647,Adana,37.00167,35.32889,,,
1431,792,Turkey,22656,Ankara,39.91987,32.85427,,,
1432,792,Turkey,22658,Antalya,36.90812,30.69556,,,
1433,792,Turkey,22663,Batman,37.88738,41.13221,,,
1434,792,Turkey,22670,Bursa,40.19167,29.06111,,,
1435,792,Turkey,22676,Denizli,37.77417,29.0875,,,
1436,792,Turkey,22677,Diyarbakir,37.91583,40.21889,,,
1437,792,Turkey,22679,Elazig,38.67431,39.22321,,,
1438,792,Turkey,22681,Erzurum,39.90861,41.27694,,,
1439,792,Turkey,22682,Eskisehir,39.77667,30.52056,,,
1440,792,Turkey,22683,Gaziantep,37.05944,37.3825,,,
1441,792,Turkey,22684,Gebze,40.80276,29.43068,,,
1442,792,Turkey,22691,Istanbul,41.0138,28.9497,,,
1443,792,Turkey,22692,Izmir,38.41273,27.13838,,,
1444,792,Turkey,22704,Izmit,40.774765,29.949082,,,
1445,792,Turkey,22693,Kahramanmaras,37.5847,36.9264,,,
1446,792,Turkey,22698,Kayseri,38.73222,35.48528,,,
1447,792,Turkey,22705,Konya,37.87135,32.48464,,,
1448,792,Turkey,22708,Malatya,38.35,38.316667,,,
1449,792,Turkey,22709,Manisa,38.61202,27.42646,,,
1450,792,Turkey,22711,Mersin,36.8,34.633333,,,
1451,792,Turkey,22648,Sakarya,40.773758,30.402377,,,
1452,792,Turkey,22721,Samsun,41.2833333,36.3333333,,,
1453,792,Turkey,22722,Sanliurfa,37.16708,38.79392,,,
1454,792,Turkey,22726,Sivas,39.75,37.0333333,,,
1455,792,Turkey,22736,Van,38.5,43.3833333,,,
1456,795,Turkmenistan,22739,Ashgabat,37.95,58.38333,,,
1457,795,Turkmenistan,22741,Tashauz,41.83625,59.96662,,,
1458,800,Uganda,22744,Kampala,0.31628,32.58219,,,
1459,804,Ukraine,22753,Dnipropetrovsk,48.45,34.98333,,,
1460,804,Ukraine,22754,Donetsk,48.023,37.80224,,,
1461,804,Ukraine,22762,Kharkiv,49.98081,36.25272,,,
1462,804,Ukraine,22771,Krivoi Rog,47.91083,33.392491,,,
1463,804,Ukraine,22765,Kyiv (Kiev),50.445368,30.518634,,,
1464,804,Ukraine,22773,Lugansk,48.56705,39.31706,,,
1465,804,Ukraine,22775,Lvov,49.837969,24.032508,,,
1466,804,Ukraine,22777,Makeyevka,48.04782,37.92576,,,
1467,804,Ukraine,22778,Mariupol,47.06667,37.5,,,
1468,804,Ukraine,22780,Nikolaev,46.96591,31.9974,,,
1469,804,Ukraine,22782,Odesa,46.47747,30.73262,,,
1470,804,Ukraine,22786,Sevastopol,44.58883,33.5224,,,
1471,804,Ukraine,22788,Simferopol,44.95719,34.11079,,,
1472,804,Ukraine,22795,Vinnitsa,49.23278,28.48097,,,
1473,804,Ukraine,22797,Zaporizhzhya,47.82289,35.19031,,,
1474,784,United Arab Emirates,22632,Abu Zaby (Abu Dhabi),24.464778,54.361781,,,
1475,784,United Arab Emirates,22633,Ajman,25.41111,55.43504,,,
1476,784,United Arab Emirates,22634,Al-Ain,24.19167,55.76056,,,
1477,784,United Arab Emirates,22635,Dubayy (Dubai),25.272061,55.311265,,,
1478,784,United Arab Emirates,22637,Sharjah,25.35731,55.4033,,,
1479,826,United Kingdom,206480,Belfast,54.594668,-5.929812,,,
1480,826,United Kingdom,22834,Birkenhead,53.39337,-3.01479,,,
1481,826,United Kingdom,22835,Birmingham (West Midlands),52.4814,-1.8998,,,
1482,826,United Kingdom,22838,Bournemouth/Poole,50.72048,-1.8795,,,
1483,826,United Kingdom,22839,Brighton-Worthing-Littlehampton,50.82838,-0.13947,,,
1484,826,United Kingdom,22840,Bristol,51.4552,-2.5966,,,
1485,826,United Kingdom,22843,Cardiff,51.48,-3.18,,,
1486,826,United Kingdom,22844,Coventry-Bedworth,52.4066,-1.5122,,,
1487,826,United Kingdom,22849,Edinburgh,55.9521,-3.1965,,,
1488,826,United Kingdom,204765,Glasgow,55.86515,-4.25763,,,
1489,826,United Kingdom,22856,Kingston upon Hull,53.748257,-0.334021,,,
1490,826,United Kingdom,22858,Leicester,52.6386,-1.1317,,,
1491,826,United Kingdom,22859,Liverpool,53.41058,-2.97794,,,
1492,826,United Kingdom,22860,London,51.50853,-0.12574,,,
1493,826,United Kingdom,22862,Manchester,53.48095,-2.23743,,,
1494,826,United Kingdom,22887,Newcastle upon Tyne,54.97328,-1.61396,,,
1495,826,United Kingdom,22865,Newport,51.58471,-2.997939,,,
1496,826,United Kingdom,22868,Nottingham,52.9536,-1.15047,,,
1497,826,United Kingdom,22873,Preston,53.761025,-2.702435,,,
1498,826,United Kingdom,22874,Reading-Wokingham,51.4112,-0.8356,,,
1499,826,United Kingdom,22875,Sheffield,53.38297,-1.4659,,,
1500,826,United Kingdom,22877,Southampton/Portsmouth (South Hampshire),50.911698,-1.40357,,,
1501,826,United Kingdom,22878,Southend-On-Sea,51.53782,0.71433,,,
1502,826,United Kingdom,22886,Stoke-on-Trent (The Potteries),53.0042,-2.1854,,,
1503,826,United Kingdom,22881,Sunderland,54.9119,-1.3833,,,
1504,826,United Kingdom,22882,Swansea,51.6208,-3.9432,,,
1505,826,United Kingdom,22884,Teeside (Middlesbrough),54.57623,-1.23483,,,
1506,826,United Kingdom,204592,West Yorkshire,53.798431,-1.764855,,,
1507,834,United Republic of Tanzania,22893,Arusha,-3.36667,36.68333,,,
1508,834,United Republic of Tanzania,22894,Dar es Salaam,-6.82349,39.26951,,,
1509,834,United Republic of Tanzania,22897,Mbeya,-8.9,33.45,,,
1510,834,United Republic of Tanzania,22898,Morogoro,-6.81667,37.66667,,,
1511,834,United Republic of Tanzania,22899,Mwanza,-2.51667,32.9,,,
1512,834,United Republic of Tanzania,22903,Zanzibar,-6.16394,39.19793,,,
1513,840,United States of America,22905,Akron,41.08144,-81.51901,,,
1514,840,United States of America,22907,Albany,42.66,-73.78,,,
1515,840,United States of America,22908,Albuquerque,35.110703,-106.609991,,,
1516,840,United States of America,22910,Allentown-Bethlehem,40.60908,-75.475962,,,
1517,840,United States of America,22917,Ann Arbor,42.27756,-83.74088,,,
1518,840,United States of America,22919,Antioch,38,-121.81,,,
1519,840,United States of America,22921,Asheville,35.579862,-82.55581,,,
1520,840,United States of America,22922,Atlanta,33.76,-84.4,,,
1521,840,United States of America,22924,Augusta-Richmond County,33.467086,-81.990199,,,
1522,840,United States of America,22926,Austin,30.27,-97.74,,,
1523,840,United States of America,22927,Bakersfield,35.357276,-119.031661,,,
1524,840,United States of America,22928,Baltimore,39.29038,-76.61219,,,
1525,840,United States of America,22929,Baton Rouge,30.45075,-91.15455,,,
1526,840,United States of America,22936,Birmingham,33.515744,-86.801056,,,
1527,840,United States of America,22938,Boise City,43.619505,-116.212301,,,
1528,840,United States of America,23075,Bonita Springs-Naples,26.33981,-81.7787,,,
1529,840,United States of America,22939,Boston,42.347919,-71.06453,,,
1530,840,United States of America,22942,Bridgeport-Stamford,41.16704,-73.20483,,,
1531,840,United States of America,22947,Buffalo,42.887934,-78.871593,,,
1532,840,United States of America,22993,Cape Coral,26.6396,-81.982471,,,
1533,840,United States of America,22952,Charleston-North Charleston,32.789295,-79.986255,,,
1534,840,United States of America,22954,Charlotte,35.22709,-80.84313,,,
1535,840,United States of America,22955,Chattanooga,35.045473,-85.267255,,,
1536,840,United States of America,22956,Chicago,41.85003,-87.65005,,,
1537,840,United States of America,22957,Cincinnati,39.104722,-84.518783,,,
1538,840,United States of America,22959,Cleveland,41.498587,-81.687402,,,
1539,840,United States of America,22960,Colorado Springs,38.863443,-104.791914,,,
1540,840,United States of America,22962,Columbia South Carolina,33.999477,-81.036538,,,
1541,840,United States of America,22963,Columbus Ohio,39.962205,-83.000186,,,
1542,840,United States of America,23426,Concord,37.97798,-122.03107,,,
1543,840,United States of America,22965,Corpus Christi,27.742857,-97.401927,,,
1544,840,United States of America,22966,Dallas-Fort Worth,32.72541,-97.32085,,,
1545,840,United States of America,22969,Dayton,39.758406,-84.192906,,,
1546,840,United States of America,22970,Daytona Beach-Port Orange,29.1383165,-80.9956105,,,
1547,840,United States of America,23046,Denton-Lewisville,33.04669,-96.994063,,,
1548,840,United States of America,22972,Denver-Aurora,39.734283,-104.983138,,,
1549,840,United States of America,22973,Des Moines,41.60054,-93.60911,,,
1550,840,United States of America,22974,Detroit,42.387137,-83.102641,,,
1551,840,United States of America,22976,Durham,35.988644,-78.907167,,,
1552,840,United States of America,22980,El Paso,31.7775757,-106.4424559,,,
1553,840,United States of America,22987,Fayetteville,35.066663,-78.917579,,,
1554,840,United States of America,22988,Fayetteville-Springdale,36.186711,-94.129539,,,
1555,840,United States of America,22990,Flint,43.027577,-83.693996,,,
1556,840,United States of America,22997,Fort Wayne,41.078348,-85.126546,,,
1557,840,United States of America,22998,Fresno,36.754529,-119.771119,,,
1558,840,United States of America,23002,Grand Rapids,42.956393,-85.664883,,,
1559,840,United States of America,23004,Greensboro,36.073233,-79.791751,,,
1560,840,United States of America,23005,Greenville,34.849805,-82.397334,,,
1561,840,United States of America,23008,Harrisburg,40.271709,-76.884956,,,
1562,840,United States of America,23009,Hartford,41.7637111,-72.6850932,,,
1563,840,United States of America,23013,Honolulu,21.30895,-157.826182,,,
1564,840,United States of America,23014,Houston,29.7601927,-95.3693896,,,
1565,840,United States of America,23016,Huntsville,34.729703,-86.589848,,,
1566,840,United States of America,23017,Indianapolis,39.790942,-86.147685,,,
1567,840,United States of America,23093,Indio-Cathedral City-Palm Springs,33.719871,-116.231889,,,
1568,840,United States of America,23019,Jackson Mississippi,32.295719,-90.184034,,,
1569,840,United States of America,23020,Jacksonville Florida,30.33218,-81.65565,,,
1570,840,United States of America,23028,Kansas City,39.11417,-94.62746,,,
1571,840,United States of America,23440,Kissimmee,28.30468,-81.41667,,,
1572,840,United States of America,23032,Knoxville,35.960749,-83.927657,,,
1573,840,United States of America,23038,Lancaster,40.0378755,-76.3055144,,,
1574,840,United States of America,23039,Lancaster-Palmdale,34.686854,-118.150931,,,
1575,840,United States of America,23040,Lansing,42.728422,-84.551367,,,
1576,840,United States of America,23043,Las Vegas,36.169941,-115.13983,,,
1577,840,United States of America,23047,Lexington-Fayette,38.029632,-84.494642,,,
1578,840,United States of America,23049,Little Rock,34.742048,-92.275359,,,
1579,840,United States of America,23052,Los Angeles-Long Beach-Santa Ana,34.031656,-118.241716,,,
1580,840,United States of America,23053,Louisville,38.24194,-85.763064,,,
1581,840,United States of America,23058,Madison,43.069698,-89.400114,,,
1582,840,United States of America,23061,McAllen,26.216263,-98.236385,,,
1583,840,United States of America,23063,Memphis,35.140814,-90.047458,,,
1584,840,United States of America,23064,Miami,25.789097,-80.204044,,,
1585,840,United States of America,23067,Milwaukee,43.0389,-87.90647,,,
1586,840,United States of America,23068,Minneapolis-St. Paul,44.97307,-93.269895,,,
1587,840,United States of America,23453,Mission Viejo,33.60002,-117.672,,,
1588,840,United States of America,23069,Mobile,30.69436,-88.04305,,,
1589,840,United States of America,23070,Modesto,37.661479,-120.994543,,,
1590,840,United States of America,23077,Nashville-Davidson,36.160996,-86.783045,,,
1591,840,United States of America,23080,New Haven,41.3019,-72.929857,,,
1592,840,United States of America,23082,New Orleans,29.95465,-90.07507,,,
1593,840,United States of America,23083,New York-Newark,40.717042,-74.003663,,,
1594,840,United States of America,23087,Ogden-Layton,41.223,-111.97383,,,
1595,840,United States of America,23088,Oklahoma City,35.4675,-97.516389,,,
1596,840,United States of America,23090,Omaha,41.25861111,-95.93777778,,,
1597,840,United States of America,23091,Orlando,28.53834,-81.37924,,,
1598,840,United States of America,23092,Oxnard,34.1975,-119.17705,,,
1599,840,United States of America,23062,Palm Bay-Melbourne,28.05902778,-80.59833333,,,
1600,840,United States of America,23095,Pensacola,30.42131,-87.21691,,,
1601,840,United States of America,23098,Philadelphia,39.95234,-75.16379,,,
1602,840,United States of America,23099,Phoenix-Mesa,33.449454,-112.074743,,,
1603,840,United States of America,23100,Pittsburgh,40.441823,-79.98823,,,
1604,840,United States of America,23465,Port St. Lucie,27.29393,-80.35033,,,
1605,840,United States of America,23102,Portland,45.521525,-122.679933,,,
1606,840,United States of America,23105,Poughkeepsie-Newburgh,41.60180556,-73.96555556,,,
1607,840,United States of America,23106,Providence,41.824037,-71.417702,,,
1608,840,United States of America,23107,Provo-Orem,40.23384,-111.65853,,,
1609,840,United States of America,23110,Raleigh,35.778897,-78.637471,,,
1610,840,United States of America,23113,Reno,39.52963,-119.8138,,,
1611,840,United States of America,23115,Richmond,37.543207,-77.438159,,,
1612,840,United States of America,23116,Riverside-San Bernardino,33.95335,-117.39616,,,
1613,840,United States of America,23118,Rochester,43.156924,-77.604633,,,
1614,840,United States of America,23119,Rockford,42.271254,-89.095727,,,
1615,840,United States of America,23120,Round Lake Beach-McHenry-Grayslake,42.354045,-88.100529,,,
1616,840,United States of America,23121,Sacramento,38.58157,-121.4944,,,
1617,840,United States of America,23126,Salt Lake City,40.7547,-111.892622,,,
1618,840,United States of America,23128,San Antonio,29.424113,-98.493536,,,
1619,840,United States of America,23129,San Diego,32.71533,-117.15726,,,
1620,840,United States of America,23130,San Francisco-Oakland,37.759881,-122.437392,,,
1621,840,United States of America,23131,San Jose,37.33939,-121.89496,,,
1622,840,United States of America,23469,Santa Clarita,34.39166,-118.54259,,,
1623,840,United States of America,23135,Santa Rosa,38.44047,-122.71443,,,
1624,840,United States of America,23136,Sarasota-Bradenton,27.33643,-82.53065,,,
1625,840,United States of America,23138,Scranton,41.410629,-75.667411,,,
1626,840,United States of America,23140,Seattle,47.626353,-122.333144,,,
1627,840,United States of America,23141,Shreveport,32.468003,-93.771115,,,
1628,840,United States of America,23147,Spokane,47.673341,-117.410271,,,
1629,840,United States of America,23150,Springfield Massachusett,42.10148,-72.5898,,,
1630,840,United States of America,23151,Springfield Missouri,37.208264,-93.291368,,,
1631,840,United States of America,23152,St. Louis,38.628612,-90.197197,,,
1632,840,United States of America,23155,Stockton,37.9577016,-121.2907796,,,
1633,840,United States of America,23157,Syracuse,43.046788,-76.147496,,,
1634,840,United States of America,23160,Tampa-St. Petersburg,27.94752,-82.45843,,,
1635,840,United States of America,23476,Temecula-Murrieta,33.53635,-117.16305,,,
1636,840,United States of America,23479,The Woodlands,30.16299,-95.45577,,,
1637,840,United States of America,23163,Toledo,41.656529,-83.549856,,,
1638,840,United States of America,23165,Trenton,40.2170534,-74.7429384,,,
1639,840,United States of America,23166,Tucson,32.214476,-110.918192,,,
1640,840,United States of America,23167,Tulsa,36.131294,-95.937332,,,
1641,840,United States of America,23011,Victorville-Hesperia-Apple Valley,34.533991,-117.295848,,,
1642,840,United States of America,23084,Virginia Beach,36.834498,-76.087179,,,
1643,840,United States of America,23174,Washington D.C.,38.89511,-77.03637,,,
1644,840,United States of America,23179,Wichita,37.688848,-97.336226,,,
1645,840,United States of America,23183,Winston-Salem,36.102764,-80.260491,,,
1646,840,United States of America,23185,Worcester,42.262599,-71.802347,,,
1647,840,United States of America,23188,Youngstown,41.096258,-80.649299,,,
1648,858,Uruguay,23193,Montevideo,-34.83346,-56.16735,,,
1649,860,Uzbekistan,23195,Andizhan,40.7830556,72.3438889,,,
1650,860,Uzbekistan,23205,Namangan,40.9983,71.67257,,,
1651,860,Uzbekistan,23208,Samarkand,39.6541667,66.9597222,,,
1652,860,Uzbekistan,23209,Tashkent,41.26465,69.21627,,,
1653,862,Venezuela (Bolivarian Republic of),23212,Acarigua-Aruare,9.55451,-69.19564,,,
1654,862,Venezuela (Bolivarian Republic of),205354,Barcelona-Puerto La Cruz,10.21667,-64.61667,,,
1655,862,Venezuela (Bolivarian Republic of),23214,Barinas,8.62261,-70.20749,,,
1656,862,Venezuela (Bolivarian Republic of),23215,Barquisimeto,10.07389,-69.32278,,,
1657,862,Venezuela (Bolivarian Republic of),23216,Cabimas,10.38828,-71.43992,,,
1658,862,Venezuela (Bolivarian Republic of),23217,Caracas,10.48801,-66.87919,,,
1659,862,Venezuela (Bolivarian Republic of),23219,Ciudad Bolivar,8.12923,-63.54086,,,
1660,862,Venezuela (Bolivarian Republic of),23220,Ciudad Guayana,8.35122,-62.64102,,,
1661,862,Venezuela (Bolivarian Republic of),23222,Cumana,10.46354,-64.1775,,,
1662,862,Venezuela (Bolivarian Republic of),205355,El Tigre-San José de Guanipa,8.88724,-64.16512,,,
1663,862,Venezuela (Bolivarian Republic of),23224,Guarenas-Guatire,10.46736,-66.60663,,,
1664,862,Venezuela (Bolivarian Republic of),205353,Lagunillas,10.13008,-71.25946,,,
1665,862,Venezuela (Bolivarian Republic of),23226,Maracaibo,10.63167,-71.64056,,,
1666,862,Venezuela (Bolivarian Republic of),23227,Maracay,10.24694,-67.59583,,,
1667,862,Venezuela (Bolivarian Republic of),23228,Maturin,9.75,-63.17667,,,
1668,862,Venezuela (Bolivarian Republic of),23229,Merida,8.59524,-71.1434,,,
1669,862,Venezuela (Bolivarian Republic of),205351,Punto Fijo,11.6956,-70.19957,,,
1670,862,Venezuela (Bolivarian Republic of),23231,San Cristóbal,7.76694,-72.225,,,
1671,862,Venezuela (Bolivarian Republic of),23233,Valencia,10.16202,-68.00765,,,
1672,704,Viet Nam,22450,Bien Hoa,10.95,106.81667,,,
1673,704,Viet Nam,23355,Can Tho,10.03333,105.78333,,,
1674,704,Viet Nam,22455,Da Nang,16.051264,108.212426,,,
1675,704,Viet Nam,22457,Hà Noi,21.0245,105.84117,,,
1676,704,Viet Nam,22456,Hai Phòng,20.86481,106.68345,,,
1677,704,Viet Nam,23366,Hue,16.46667,107.6,,,
1678,704,Viet Nam,23370,Nha Trang,12.25,109.18333,,,
1679,704,Viet Nam,22458,Thành Pho Ho Chí Minh (Ho Chi Minh City),10.75,106.66667,,,
1680,704,Viet Nam,23380,Vungtau,10.34599,107.08426,,,
1681,887,Yemen,23237,Adan (Aden),12.798803,45.035902,,,
1682,887,Yemen,23238,Al-Hudaydah,14.79781,42.95452,,,
1683,887,Yemen,23741,Al-Mukalla,14.54248,49.12424,,,
1684,887,Yemen,23745,Ibb,13.96667,44.18333,,,
1685,887,Yemen,23239,Sana'a',15.353115,44.20782,,,
1686,887,Yemen,23240,Ta'izz,13.57952,44.02091,,,
1687,894,Zambia,23274,Kitwe,-12.8166667,28.2,,,
1688,894,Zambia,23277,Lusaka,-15.413374,28.277148,,,
1689,894,Zambia,23279,Ndola,-12.95867,28.63659,,,
1690,716,Zimbabwe,22510,Bulawayo,-20.15,28.58333,,,
1691,716,Zimbabwe,22511,Chitungwiza,-18.01274,31.07555,,,
1692,716,Zimbabwe,22513,Harare,-17.82935,31.05389,,,
